{
"type": "FeatureCollection",
"name": "HKG_ADM0",
"crs": { "type": "name", "properties": { "name": "urn:ogc:def:crs:OGC:1.3:CRS84" } },
"features": [
{ "type": "Feature", "properties": { "shapeName": "Hong Kong Special Administrative Region", "shapeISO": "HKG", "shapeID": "43563684B69230098435171", "shapeGroup": "CHN", "shapeType": "ADM1" }, "geometry": { "type": "MultiPolygon", "coordinates": [ [ [ [ 114.260994998000115, 22.255725649000055 ], [ 114.222818921000112, 22.282642724000027 ], [ 114.176527854000028, 22.287996905000057 ], [ 114.125560823000114, 22.278437273000065 ], [ 114.170099579000066, 22.237217157000032 ], [ 114.201004021000017, 22.237217157000032 ], [ 114.230090555000061, 22.206925260000048 ], [ 114.260994998000115, 22.255725649000055 ] ] ], [ [ [ 114.013008056000103, 22.251399740000068 ], [ 114.010939681000082, 22.284896794000076 ], [ 114.023171025000011, 22.297012715000051 ], [ 113.937987420000013, 22.301838003000057 ], [ 113.842311184000096, 22.22134264500005 ], [ 113.841332869000098, 22.218852072000061 ], [ 113.85167474800005, 22.193000012000027 ], [ 113.890973887000087, 22.211192699000037 ], [ 113.916828584000086, 22.231297661000042 ], [ 113.9519909710001, 22.225553680000075 ], [ 113.98405079500003, 22.211192699000037 ], [ 114.027486687000078, 22.221724229000074 ], [ 114.013008056000103, 22.251399740000068 ] ] ], [ [ [ 114.414272952000033, 22.436967959000071 ], [ 114.333606298000063, 22.466597687000046 ], [ 114.323264419000111, 22.488576942000066 ], [ 114.337743049000096, 22.503864800000031 ], [ 114.332572109000012, 22.523927548000074 ], [ 114.306717412000012, 22.543032220000043 ], [ 114.300512285000082, 22.565954336000061 ], [ 114.277380226000105, 22.604047133000051 ], [ 114.062341796778341, 22.54168645556917 ], [ 114.039613323536358, 22.534065890046644 ], [ 114.043451962000063, 22.458877244000064 ], [ 113.925489908000031, 22.411455038000042 ], [ 113.931953582, 22.359159827000042 ], [ 113.975583382000082, 22.374103321000064 ], [ 114.030051472000082, 22.356802195000057 ], [ 114.077706850000027, 22.367207994000069 ], [ 114.11013898200008, 22.364147546000027 ], [ 114.081016251000051, 22.34884429400006 ], [ 114.10485686700008, 22.326278496000043 ], [ 114.148486668000032, 22.323288900000023 ], [ 114.166261772000098, 22.303854963000049 ], [ 114.204332813000065, 22.298293369000078 ], [ 114.226050759000032, 22.307861565000053 ], [ 114.258110582000086, 22.287767597000027 ], [ 114.278794340000104, 22.261928250000039 ], [ 114.299478098, 22.286810669000033 ], [ 114.318093480000016, 22.305947978000063 ], [ 114.263281522000057, 22.357605611000054 ], [ 114.265349897000078, 22.384383514000035 ], [ 114.288102031000108, 22.392989603000046 ], [ 114.317059291000078, 22.371951557000045 ], [ 114.336708861000034, 22.348040827000034 ], [ 114.372905437000099, 22.348997334000046 ], [ 114.414272952000033, 22.391077185000029 ], [ 114.414272952000033, 22.436967959000071 ] ] ] ] } }
]
}
