{
"type": "FeatureCollection",
"name": "TWN_ADM0",
"crs": { "type": "name", "properties": { "name": "urn:ogc:def:crs:OGC:1.3:CRS84" } },
"features": [
{ "type": "Feature", "properties": { "shapeName": "Taiwan Province", "shapeISO": "TWN", "shapeID": "43563684B32372453033755", "shapeGroup": "CHN", "shapeType": "ADM1" }, "geometry": { "type": "Polygon", "coordinates": [ [ [ 121.73295436, 25.162184424000031 ], [ 121.618530653000107, 25.281383638000023 ], [ 121.504106948000071, 25.275112909000029 ], [ 121.409717627000077, 25.165323446000059 ], [ 121.407020165000063, 25.105680913000072 ], [ 121.278726919000064, 25.115099980000025 ], [ 121.136564133000093, 25.077419360000079 ], [ 121.042944736000095, 25.008308106000072 ], [ 120.907716719000064, 24.860531080000044 ], [ 120.853625512, 24.697583150000071 ], [ 120.711601420000079, 24.59270013500003 ], [ 120.651685007000083, 24.457432788000062 ], [ 120.467497513000012, 24.152044318000037 ], [ 120.232270111000048, 23.852013140000054 ], [ 120.169163703000095, 23.668839802000036 ], [ 120.027000915000031, 23.162931609000054 ], [ 120.162228932000062, 22.891688569000053 ], [ 120.265557006000108, 22.550750575000052 ], [ 120.5251948, 22.401059575000033 ], [ 120.625055489000033, 22.296385127000065 ], [ 120.667218892000051, 22.058010296000077 ], [ 120.722697053000047, 21.901615205000041 ], [ 120.820338615000082, 21.905733072000032 ], [ 120.882474154000079, 22.027156499000057 ], [ 120.880255028000079, 22.294331901000078 ], [ 120.975677466000093, 22.546651610000026 ], [ 121.143498902000033, 22.699895500000025 ], [ 121.379281086000105, 23.115104888000076 ], [ 121.674008815000093, 24.201264493000053 ], [ 121.809236832000011, 24.406670012000063 ], [ 121.843910681000011, 24.624350803000027 ], [ 121.816171602000054, 24.794445852000024 ], [ 121.947932233000074, 25.005165760000068 ], [ 121.923660538000036, 25.105680913000072 ], [ 121.73295436, 25.162184424000031 ] ] ] } }
]
}
