{
"type": "FeatureCollection",
"name": "my_airports_gdf",
"crs": { "type": "name", "properties": { "name": "urn:ogc:def:crs:OGC:1.3:CRS84" } },
"features": [
{ "type": "Feature", "properties": { "Departure": "BUD", "city_name": "Budapest", "continent": "EU", "country": "Hungary", "country_code": "HU", "display_name": "Budapest (BUD), Hungary", "elevation": 495.0, "iata": "BUD", "icao": "LHBP", "latitude": 47.433037, "longitude": 19.261621, "name": "Budapest Ferenc Liszt International Airport", "timezone": "Europe/Budapest", "No. visit": 1, "Name": "Budapest Ferenc Liszt International Airport" }, "geometry": { "type": "Point", "coordinates": [ 19.261621, 47.433037 ] } },
{ "type": "Feature", "properties": { "Departure": "CAN", "city_name": "Guangzhou", "continent": "AS", "country": "China", "country_code": "CN", "display_name": "Guangzhou (CAN), China", "elevation": 36.0, "iata": "CAN", "icao": "ZGGG", "latitude": 23.387862, "longitude": 113.29734, "name": "Guangzhou Baiyun International Airport", "timezone": "Asia/Shanghai", "No. visit": 4, "Name": "Guangzhou Baiyun International Airport" }, "geometry": { "type": "Point", "coordinates": [ 113.29734, 23.387862 ] } },
{ "type": "Feature", "properties": { "Departure": "DLC", "city_name": "Dalian", "continent": "AS", "country": "China", "country_code": "CN", "display_name": "Dalian (DLC), China", "elevation": 108.0, "iata": "DLC", "icao": "ZYTL", "latitude": 38.96102, "longitude": 121.539991, "name": "Dalian Zhoushuizi International Airport", "timezone": "Asia/Shanghai", "No. visit": 3, "Name": "Dalian Zhoushuizi International Airport" }, "geometry": { "type": "Point", "coordinates": [ 121.539991, 38.96102 ] } },
{ "type": "Feature", "properties": { "Departure": "GVA", "city_name": "Geneva", "continent": "EU", "country": "Switzerland", "country_code": "CH", "display_name": "Geneva (GVA), Switzerland", "elevation": 1411.0, "iata": "GVA", "icao": "LSGG", "latitude": 46.229634, "longitude": 6.105774, "name": "Geneva Airport", "timezone": "Europe/Zurich", "No. visit": 9, "Name": "Geneva Airport" }, "geometry": { "type": "Point", "coordinates": [ 6.105774, 46.229634 ] } },
{ "type": "Feature", "properties": { "Departure": "HGH", "city_name": "Hangzhou", "continent": "AS", "country": "China", "country_code": "CN", "display_name": "Hangzhou (HGH), China", "elevation": 20.0, "iata": "HGH", "icao": "ZSHC", "latitude": 30.236934, "longitude": 120.432356, "name": "Hangzhou Xiaoshan International Airport", "timezone": "Asia/Shanghai", "No. visit": 1, "Name": "Hangzhou Xiaoshan International Airport" }, "geometry": { "type": "Point", "coordinates": [ 120.432356, 30.236934 ] } },
{ "type": "Feature", "properties": { "Departure": "IST", "city_name": "Istanbul", "continent": "AS", "country": "Turkiye", "country_code": "TR", "display_name": "Istanbul (IST), Turkiye", "elevation": 325.0, "iata": "IST", "icao": "LTFM", "latitude": 41.260278, "longitude": 28.741944, "name": "Istanbul Airport", "timezone": "Europe/Istanbul", "No. visit": 6, "Name": "Istanbul Airport" }, "geometry": { "type": "Point", "coordinates": [ 28.741944, 41.260278 ] } },
{ "type": "Feature", "properties": { "Departure": "LCA", "city_name": "Larnaca", "continent": "AS", "country": "Cyprus", "country_code": "CY", "display_name": "Larnaca (LCA), Cyprus", "elevation": 8.0, "iata": "LCA", "icao": "LCLK", "latitude": 34.870871, "longitude": 33.607975, "name": "Larnaca Airport", "timezone": "Asia/Nicosia", "No. visit": 2, "Name": "Larnaca Airport" }, "geometry": { "type": "Point", "coordinates": [ 33.607975, 34.870871 ] } },
{ "type": "Feature", "properties": { "Departure": "LIS", "city_name": "Lisbon", "continent": "EU", "country": "Portugal", "country_code": "PT", "display_name": "Lisbon (LIS), Portugal", "elevation": 374.0, "iata": "LIS", "icao": "LPPT", "latitude": 38.770043, "longitude": -9.128165, "name": "Lisbon Airport", "timezone": "Europe/Lisbon", "No. visit": 2, "Name": "Lisbon Airport" }, "geometry": { "type": "Point", "coordinates": [ -9.128165, 38.770043 ] } },
{ "type": "Feature", "properties": { "Departure": "MAD", "city_name": "Madrid", "continent": "EU", "country": "Spain", "country_code": "ES", "display_name": "Madrid (MAD), Spain", "elevation": 1953.0, "iata": "MAD", "icao": "LEMD", "latitude": 40.49027, "longitude": -3.564479, "name": "Barajas", "timezone": "Europe/Madrid", "No. visit": 1, "Name": "Barajas" }, "geometry": { "type": "Point", "coordinates": [ -3.564479, 40.49027 ] } },
{ "type": "Feature", "properties": { "Departure": "NAP", "city_name": "Naples", "continent": "EU", "country": "Italy", "country_code": "IT", "display_name": "Naples (NAP), Italy", "elevation": 298.0, "iata": "NAP", "icao": "LIRN", "latitude": 40.886111, "longitude": 14.291667, "name": "Naples International Airport", "timezone": "Europe/Rome", "No. visit": 3, "Name": "Naples International Airport" }, "geometry": { "type": "Point", "coordinates": [ 14.291667, 40.886111 ] } },
{ "type": "Feature", "properties": { "Departure": "NCE", "city_name": "Nice", "continent": "EU", "country": "France", "country_code": "FR", "display_name": "Nice (NCE), France", "elevation": 13.0, "iata": "NCE", "icao": "LFMN", "latitude": 43.660488, "longitude": 7.205232, "name": "Cote D Azur Airport", "timezone": "Europe/Paris", "No. visit": 2, "Name": "Cote D Azur Airport" }, "geometry": { "type": "Point", "coordinates": [ 7.205232, 43.660488 ] } },
{ "type": "Feature", "properties": { "Departure": "PEK", "city_name": "Beijing", "continent": "AS", "country": "China", "country_code": "CN", "display_name": "Beijing (PEK), China", "elevation": 115.0, "iata": "PEK", "icao": "ZBAA", "latitude": 40.078538, "longitude": 116.587095, "name": "Beijing Capital International Airport", "timezone": "Asia/Shanghai", "No. visit": 2, "Name": "Beijing Capital International Airport" }, "geometry": { "type": "Point", "coordinates": [ 116.587095, 40.078538 ] } },
{ "type": "Feature", "properties": { "Departure": "PKX", "city_name": "Beijing", "continent": "AS", "country": "China", "country_code": "CN", "display_name": "Beijing (PKX), China", "elevation": 94.0, "iata": "PKX", "icao": "ZBAD", "latitude": 39.508611, "longitude": 116.410833, "name": "Daxing International Airport", "timezone": "Asia/Shanghai", "No. visit": 3, "Name": "Daxing International Airport" }, "geometry": { "type": "Point", "coordinates": [ 116.410833, 39.508611 ] } },
{ "type": "Feature", "properties": { "Departure": "PVG", "city_name": "Shanghai", "continent": "AS", "country": "China", "country_code": "CN", "display_name": "Shanghai (PVG), China", "elevation": 16.0, "iata": "PVG", "icao": "ZSPD", "latitude": 31.143333, "longitude": 121.805278, "name": "Shanghai Pudong International Airport", "timezone": "Asia/Shanghai", "No. visit": 2, "Name": "Shanghai Pudong International Airport" }, "geometry": { "type": "Point", "coordinates": [ 121.805278, 31.143333 ] } },
{ "type": "Feature", "properties": { "Departure": "SHA", "city_name": "Shanghai", "continent": "AS", "country": "China", "country_code": "CN", "display_name": "Shanghai (SHA), China", "elevation": 11.0, "iata": "SHA", "icao": "ZSSS", "latitude": 31.19779, "longitude": 121.333473, "name": "Hongqiao International", "timezone": "Asia/Shanghai", "No. visit": 7, "Name": "Hongqiao International" }, "geometry": { "type": "Point", "coordinates": [ 121.333473, 31.19779 ] } },
{ "type": "Feature", "properties": { "Departure": "SHE", "city_name": "Shenyang", "continent": "AS", "country": "China", "country_code": "CN", "display_name": "Shenyang (SHE), China", "elevation": 195.0, "iata": "SHE", "icao": "ZYTX", "latitude": 41.634992, "longitude": 123.485731, "name": "Shenyang Taoxian International Airport", "timezone": "Asia/Shanghai", "No. visit": 1, "Name": "Shenyang Taoxian International Airport" }, "geometry": { "type": "Point", "coordinates": [ 123.485731, 41.634992 ] } },
{ "type": "Feature", "properties": { "Departure": "SZX", "city_name": "Shenzhen", "continent": "AS", "country": "China", "country_code": "CN", "display_name": "Shenzhen (SZX), China", "elevation": 13.0, "iata": "SZX", "icao": "ZGSZ", "latitude": 22.639444, "longitude": 113.810833, "name": "Shenzhen Bao'an International Airport", "timezone": "Asia/Shanghai", "No. visit": 3, "Name": "Shenzhen Bao'an International Airport" }, "geometry": { "type": "Point", "coordinates": [ 113.810833, 22.639444 ] } },
{ "type": "Feature", "properties": { "Departure": "VIE", "city_name": "Vienna", "continent": "EU", "country": "Austria", "country_code": "AT", "display_name": "Vienna (VIE), Austria", "elevation": 600.0, "iata": "VIE", "icao": "LOWW", "latitude": 48.11972, "longitude": 16.563583, "name": "Vienna International Airport", "timezone": "Europe/Vienna", "No. visit": 1, "Name": "Vienna International Airport" }, "geometry": { "type": "Point", "coordinates": [ 16.563583, 48.11972 ] } },
{ "type": "Feature", "properties": { "Departure": "XIY", "city_name": "Xian", "continent": "AS", "country": "China", "country_code": "CN", "display_name": "Xian (XIY), China", "elevation": 1557.0, "iata": "XIY", "icao": "ZLXY", "latitude": 34.438416, "longitude": 108.760946, "name": "Xi'an Xianyang International Airport", "timezone": "Asia/Shanghai", "No. visit": 18, "Name": "Xi'an Xianyang International Airport" }, "geometry": { "type": "Point", "coordinates": [ 108.760946, 34.438416 ] } },
{ "type": "Feature", "properties": { "Departure": "ZRH", "city_name": "Zurich", "continent": "EU", "country": "Switzerland", "country_code": "CH", "display_name": "Zurich (ZRH), Switzerland", "elevation": 1416.0, "iata": "ZRH", "icao": "LSZH", "latitude": 47.450604, "longitude": 8.561746, "name": "Zurich Airport", "timezone": "Europe/Zurich", "No. visit": 2, "Name": "Zurich Airport" }, "geometry": { "type": "Point", "coordinates": [ 8.561746, 47.450604 ] } },
{ "type": "Feature", "properties": { "Departure": "ZUH", "city_name": "Zhuhai", "continent": "AS", "country": "China", "country_code": "CN", "display_name": "Zhuhai (ZUH), China", "elevation": 22.0, "iata": "ZUH", "icao": "ZGSD", "latitude": 22.011788, "longitude": 113.370601, "name": "Zhuhai Airport", "timezone": "Asia/Shanghai", "No. visit": 1, "Name": "Zhuhai Airport" }, "geometry": { "type": "Point", "coordinates": [ 113.370601, 22.011788 ] } }
]
}
