{
"type": "FeatureCollection",
"name": "my_flights_gdf",
"crs": { "type": "name", "properties": { "name": "urn:ogc:def:crs:OGC:1.3:CRS84" } },
"features": [
{ "type": "Feature", "properties": { "Date": "2015-07-28T00:00:00", "Flight Number": "ZH9250", "Departure": "XIY", "Arrival": "SZX", "Aircraft": "Airbus A320", "Aircraft Registration": "B6740", "Class": "Economy", "Departure Latitude": 34.438416, "Departure Longitude": 108.760946, "Arrival Latitude": 22.639444, "Arrival Longitude": 113.810833, "Route": "XIY<->SZX", "Distance": "1397 km", "No. flight": 3 }, "geometry": { "type": "MultiLineString", "coordinates": [ [ [ 108.760946, 34.438416 ], [ 108.970469346092614, 34.005530291156695 ], [ 109.17787635458447, 33.572260766624808 ], [ 109.383220530611325, 33.138616748918821 ], [ 109.586553995761378, 32.704607318563589 ], [ 109.787927535413459, 32.270241323212758 ], [ 109.987390644363273, 31.835527386397448 ], [ 110.184991570805693, 31.400473915922014 ], [ 110.380777358738612, 30.965089111922907 ], [ 110.574793888851417, 30.52938097460601 ], [ 110.767085917958255, 30.093357311676908 ], [ 110.95769711703457, 29.657025745477878 ], [ 111.146670107912556, 29.220393719844786 ], [ 111.334046498689219, 28.783468506696444 ], [ 111.519866917898582, 28.346257212368275 ], [ 111.704171047497496, 27.90876678370169 ], [ 111.886997654712644, 27.471004013899954 ], [ 112.068384622794298, 27.032975548160884 ], [ 112.248368980720599, 26.594687889096143 ], [ 112.426986931894533, 26.156147401946516 ], [ 112.604273881873951, 25.717360319602097 ], [ 112.780264465173275, 25.278332747435829 ], [ 112.954992571174301, 24.839070667958634 ], [ 113.128491369181788, 24.399579945303664 ], [ 113.300793332657975, 23.959866329547332 ], [ 113.471930262669318, 23.519935460873956 ], [ 113.641933310576718, 23.079792873590794 ], [ 113.810833, 22.639444 ] ] ] } },
{ "type": "Feature", "properties": { "Date": "2015-08-01T00:00:00", "Flight Number": "ZH9249", "Departure": "SZX", "Arrival": "XIY", "Aircraft": "Airbus A320", "Aircraft Registration": "B6570", "Class": "Economy", "Departure Latitude": 22.639444, "Departure Longitude": 113.810833, "Arrival Latitude": 34.438416, "Arrival Longitude": 108.760946, "Route": "XIY<->SZX", "Distance": "1397 km", "No. flight": 3 }, "geometry": { "type": "MultiLineString", "coordinates": [ [ [ 113.810833, 22.639444 ], [ 113.641933310576718, 23.079792873590794 ], [ 113.471930262669318, 23.519935460873956 ], [ 113.300793332657975, 23.959866329547332 ], [ 113.128491369181788, 24.399579945303664 ], [ 112.954992571174301, 24.839070667958634 ], [ 112.780264465173275, 25.278332747435833 ], [ 112.604273881873951, 25.717360319602097 ], [ 112.426986931894533, 26.156147401946516 ], [ 112.248368980720599, 26.594687889096139 ], [ 112.068384622794298, 27.032975548160881 ], [ 111.886997654712644, 27.471004013899957 ], [ 111.704171047497496, 27.90876678370169 ], [ 111.519866917898582, 28.346257212368279 ], [ 111.334046498689219, 28.783468506696444 ], [ 111.146670107912556, 29.220393719844786 ], [ 110.95769711703457, 29.657025745477878 ], [ 110.767085917958241, 30.093357311676908 ], [ 110.574793888851417, 30.52938097460601 ], [ 110.380777358738612, 30.965089111922914 ], [ 110.184991570805693, 31.400473915922014 ], [ 109.987390644363273, 31.835527386397455 ], [ 109.787927535413459, 32.270241323212751 ], [ 109.586553995761378, 32.704607318563589 ], [ 109.383220530611325, 33.138616748918821 ], [ 109.17787635458447, 33.572260766624815 ], [ 108.970469346092614, 34.005530291156688 ], [ 108.760946, 34.438416 ] ] ] } },
{ "type": "Feature", "properties": { "Date": "2019-07-25T00:00:00", "Flight Number": "JD5343", "Departure": "XIY", "Arrival": "DLC", "Aircraft": "Airbus A319", "Aircraft Registration": "B6245", "Class": "Economy", "Departure Latitude": 34.438416, "Departure Longitude": 108.760946, "Arrival Latitude": 38.96102, "Arrival Longitude": 121.539991, "Route": "XIY<->DLC", "Distance": "1245 km", "No. flight": 3 }, "geometry": { "type": "MultiLineString", "coordinates": [ [ [ 108.760946, 34.438416 ], [ 109.263398720907219, 34.653199951608521 ], [ 109.768437531629047, 34.865895348473437 ], [ 110.276070704614014, 35.076475070851906 ], [ 110.78630565526278, 35.28491188040924 ], [ 111.299148913422798, 35.491178427903428 ], [ 111.814606094716353, 35.695247261260604 ], [ 112.332681871744143, 35.897090834047553 ], [ 112.853379945208786, 36.096681514345946 ], [ 113.376703015005944, 36.293991594033159 ], [ 113.902652751332582, 36.488993298473538 ], [ 114.431229765865169, 36.68165879662353 ], [ 114.96243358306296, 36.871960211553223 ], [ 115.496262611654316, 37.059869631386292 ], [ 116.032714116366066, 37.245359120659636 ], [ 116.571784189959473, 37.428400732102716 ], [ 117.113467725637548, 37.608966518836489 ], [ 117.657758389891995, 37.787028546990094 ], [ 118.204648595859595, 37.962558908733044 ], [ 118.754129477260321, 38.135529735719658 ], [ 119.306190862991656, 38.305913212940879 ], [ 119.860821252455182, 38.473681592978259 ], [ 120.418007791693412, 38.638807210653255 ], [ 120.977736250416584, 38.80126249806392 ], [ 121.539991, 38.96102 ] ] ] } },
{ "type": "Feature", "properties": { "Date": "2019-07-30T00:00:00", "Flight Number": "JD5344", "Departure": "DLC", "Arrival": "XIY", "Aircraft": "Airbus A320", "Aircraft Registration": "B6958", "Class": "Economy", "Departure Latitude": 38.96102, "Departure Longitude": 121.539991, "Arrival Latitude": 34.438416, "Arrival Longitude": 108.760946, "Route": "XIY<->DLC", "Distance": "1245 km", "No. flight": 3 }, "geometry": { "type": "MultiLineString", "coordinates": [ [ [ 121.539991, 38.96102 ], [ 120.977736250416569, 38.801262498063913 ], [ 120.418007791693412, 38.638807210653255 ], [ 119.860821252455182, 38.473681592978252 ], [ 119.306190862991656, 38.305913212940865 ], [ 118.754129477260307, 38.135529735719658 ], [ 118.204648595859595, 37.962558908733044 ], [ 117.657758389891995, 37.787028546990086 ], [ 117.113467725637548, 37.608966518836489 ], [ 116.571784189959473, 37.428400732102716 ], [ 116.032714116366066, 37.245359120659629 ], [ 115.496262611654302, 37.059869631386285 ], [ 114.96243358306296, 36.871960211553208 ], [ 114.431229765865154, 36.681658796623523 ], [ 113.902652751332582, 36.488993298473531 ], [ 113.376703015005944, 36.293991594033145 ], [ 112.853379945208786, 36.096681514345939 ], [ 112.332681871744143, 35.897090834047553 ], [ 111.814606094716339, 35.695247261260597 ], [ 111.299148913422783, 35.491178427903421 ], [ 110.786305655262765, 35.284911880409233 ], [ 110.276070704614, 35.076475070851899 ], [ 109.768437531629047, 34.86589534847343 ], [ 109.263398720907219, 34.653199951608514 ], [ 108.760946, 34.438416 ] ] ] } },
{ "type": "Feature", "properties": { "Date": "2022-11-03T00:00:00", "Flight Number": "HO1212", "Departure": "XIY", "Arrival": "SHA", "Aircraft": "Airbus A320", "Aircraft Registration": "B1681", "Class": "Economy", "Departure Latitude": 34.438416, "Departure Longitude": 108.760946, "Arrival Latitude": 31.19779, "Arrival Longitude": 121.333473, "Route": "XIY<->SHA", "Distance": "1229 km", "No. flight": 5 }, "geometry": { "type": "MultiLineString", "coordinates": [ [ [ 108.760946, 34.438416 ], [ 109.30247606389932, 34.329441167325001 ], [ 109.842592320924979, 34.21807597703198 ], [ 110.381274024027249, 34.104336505868304 ], [ 110.918501183475058, 33.988239050273428 ], [ 111.454254568086398, 33.869800117622191 ], [ 111.988515705729327, 33.74903641749858 ], [ 112.521266883111778, 33.625964853009499 ], [ 113.052491144878928, 33.500602512147367 ], [ 113.582172292037981, 33.372966659210277 ], [ 114.110294879730873, 33.243074726288185 ], [ 114.636844214375884, 33.110944304823022 ], [ 115.161806350199939, 32.976593137250283 ], [ 115.685168085183591, 32.840039108729719 ], [ 116.206916956441404, 32.701300238971669 ], [ 116.727041235060526, 32.560394674165956 ], [ 117.245529920420665, 32.417340679019247 ], [ 117.762372734018797, 32.272156628907084 ], [ 118.277560112822087, 32.124861002145678 ], [ 118.7910832021727, 31.975472372388939 ], [ 119.302933848267855, 31.824009401155251 ], [ 119.813104590238865, 31.6704908304886 ], [ 120.321588651852352, 31.514935475757984 ], [ 120.828379932857246, 31.357362218598848 ], [ 121.333473, 31.19779 ] ] ] } },
{ "type": "Feature", "properties": { "Date": "2022-11-09T00:00:00", "Flight Number": "9C8947", "Departure": "SHA", "Arrival": "XIY", "Aircraft": "Airbus A321", "Aircraft Registration": "B30EU", "Class": "Economy", "Departure Latitude": 31.19779, "Departure Longitude": 121.333473, "Arrival Latitude": 34.438416, "Arrival Longitude": 108.760946, "Route": "XIY<->SHA", "Distance": "1229 km", "No. flight": 5 }, "geometry": { "type": "MultiLineString", "coordinates": [ [ [ 121.333473, 31.19779 ], [ 120.828379932857246, 31.357362218598833 ], [ 120.321588651852366, 31.514935475757969 ], [ 119.813104590238851, 31.670490830488596 ], [ 119.302933848267855, 31.824009401155244 ], [ 118.7910832021727, 31.975472372388932 ], [ 118.277560112822087, 32.124861002145678 ], [ 117.762372734018797, 32.272156628907084 ], [ 117.245529920420665, 32.41734067901924 ], [ 116.727041235060526, 32.560394674165948 ], [ 116.206916956441404, 32.701300238971662 ], [ 115.685168085183591, 32.840039108729712 ], [ 115.161806350199939, 32.976593137250269 ], [ 114.636844214375884, 33.110944304823015 ], [ 114.110294879730873, 33.243074726288185 ], [ 113.582172292037981, 33.37296665921027 ], [ 113.052491144878928, 33.50060251214736 ], [ 112.521266883111778, 33.625964853009499 ], [ 111.988515705729327, 33.749036417498573 ], [ 111.454254568086398, 33.869800117622177 ], [ 110.918501183475058, 33.988239050273428 ], [ 110.381274024027249, 34.104336505868297 ], [ 109.842592320924979, 34.218075977031972 ], [ 109.30247606389932, 34.329441167324994 ], [ 108.760946, 34.438416 ] ] ] } },
{ "type": "Feature", "properties": { "Date": "2023-04-13T00:00:00", "Flight Number": "CZ3762", "Departure": "XIY", "Arrival": "ZUH", "Aircraft": "Boeing 737", "Aircraft Registration": "B6067", "Class": "Economy", "Departure Latitude": 34.438416, "Departure Longitude": 108.760946, "Arrival Latitude": 22.011788, "Arrival Longitude": 113.370601, "Route": "ZUH<->XIY", "Distance": "1449 km", "No. flight": 1 }, "geometry": { "type": "MultiLineString", "coordinates": [ [ [ 108.760946, 34.438416 ], [ 108.946336356563464, 33.998013314852386 ], [ 109.12982249904617, 33.557302523681429 ], [ 109.311453752922546, 33.116291094568602 ], [ 109.491278118142191, 32.674986300267875 ], [ 109.669342316749351, 32.233395225845605 ], [ 109.845691838647866, 31.791524775996962 ], [ 110.020370985593374, 31.349381682054688 ], [ 110.193422913491219, 30.906972508704644 ], [ 110.364889673074572, 30.464303660422178 ], [ 110.534812249033877, 30.021381387642606 ], [ 110.703230597665623, 29.578211792678076 ], [ 110.870183683105211, 29.134800835392973 ], [ 111.035709512205699, 28.691154338648889 ], [ 111.19984516812157, 28.247277993530115 ], [ 111.36262684265354, 27.803177364359563 ], [ 111.524089867408549, 27.358857893514919 ], [ 111.684268743825967, 26.914324906054119 ], [ 111.843197172119119, 26.469583614158971 ], [ 112.000908079178913, 26.024639121404984 ], [ 112.157433645484261, 25.579496426865568 ], [ 112.312805331062052, 25.134160429057758 ], [ 112.467053900537252, 24.688635929736982 ], [ 112.620209447312476, 24.24292763754724 ], [ 112.772301416913919, 23.797040171533482 ], [ 112.923358629539464, 23.350978064522156 ], [ 113.073409301843128, 22.904745766375829 ], [ 113.222481067988127, 22.458347647127532 ], [ 113.370601, 22.011788 ] ] ] } },
{ "type": "Feature", "properties": { "Date": "2023-04-17T00:00:00", "Flight Number": "CZ6567", "Departure": "CAN", "Arrival": "HGH", "Aircraft": "Airbus A350", "Aircraft Registration": "B309W", "Class": "Economy", "Departure Latitude": 23.387862, "Departure Longitude": 113.29734, "Arrival Latitude": 30.236934, "Arrival Longitude": 120.432356, "Route": "HGH<->CAN", "Distance": "1038 km", "No. flight": 1 }, "geometry": { "type": "MultiLineString", "coordinates": [ [ [ 113.29734, 23.387862 ], [ 113.634764690919042, 23.738500499784262 ], [ 113.973998310848884, 24.088382781601577 ], [ 114.315076868126738, 24.43749241822918 ], [ 114.658036730474279, 24.785812735441819 ], [ 115.002914628028719, 25.133326806224026 ], [ 115.349747656104924, 25.480017444901051 ], [ 115.698573277669325, 25.825867201189023 ], [ 116.049429325505557, 26.170858354165006 ], [ 116.402354004050494, 26.514972906157762 ], [ 116.757385890878354, 26.858192576560306 ], [ 117.114563937809436, 27.20049879556554 ], [ 117.473927471618808, 27.541872697826555 ], [ 117.835516194319069, 27.882295116043323 ], [ 118.199370182990208, 28.221746574477901 ], [ 118.565529889127902, 28.560207282400548 ], [ 118.934036137480618, 28.897657127469337 ], [ 119.304930124344494, 29.234075669046419 ], [ 119.678253415283237, 29.569442131454181 ], [ 120.054047942239194, 29.903735397175204 ], [ 120.432356, 30.236934 ] ] ] } },
{ "type": "Feature", "properties": { "Date": "2023-04-24T00:00:00", "Flight Number": "CZ3548", "Departure": "SHA", "Arrival": "CAN", "Aircraft": "Airbus A350", "Aircraft Registration": "B32AV", "Class": "Economy", "Departure Latitude": 31.19779, "Departure Longitude": 121.333473, "Arrival Latitude": 23.387862, "Arrival Longitude": 113.29734, "Route": "SHA<->CAN", "Distance": "1174 km", "No. flight": 1 }, "geometry": { "type": "MultiLineString", "coordinates": [ [ [ 121.333473, 31.19779 ], [ 120.959099488258659, 30.868736758339992 ], [ 120.587279166173474, 30.538591469965194 ], [ 120.217969767867459, 30.207375281878196 ], [ 119.851129398736049, 29.875108992163046 ], [ 119.486716539128793, 29.541813056786857 ], [ 119.124690047377399, 29.207507596348869 ], [ 118.765009162205729, 28.872212402772682 ], [ 118.407633504556969, 28.535946945937852 ], [ 118.052523078870877, 28.19873038024755 ], [ 117.699638273842822, 27.860581551129069 ], [ 117.348939862695318, 27.521519001464625 ], [ 117.000389002990659, 27.181560977950006 ], [ 116.653947236012471, 26.840725437378858 ], [ 116.309576485742639, 26.499030052850987 ], [ 115.967239057458613, 26.15649221990293 ], [ 115.626897635975084, 25.813129062559579 ], [ 115.288515283552854, 25.468957439305743 ], [ 114.952055437496469, 25.123993948976747 ], [ 114.61748190746124, 24.778254936567404 ], [ 114.284758872489249, 24.431756498958904 ], [ 113.953850877792803, 24.084514490563201 ], [ 113.624722831302989, 23.736544528884803 ], [ 113.29734, 23.387862 ] ] ] } },
{ "type": "Feature", "properties": { "Date": "2023-04-24T00:00:00", "Flight Number": "CZ3215", "Departure": "CAN", "Arrival": "XIY", "Aircraft": "Boeing 737", "Aircraft Registration": "B2695", "Class": "Economy", "Departure Latitude": 23.387862, "Departure Longitude": 113.29734, "Arrival Latitude": 34.438416, "Arrival Longitude": 108.760946, "Route": "XIY<->CAN", "Distance": "1301 km", "No. flight": 1 }, "geometry": { "type": "MultiLineString", "coordinates": [ [ [ 113.29734, 23.387862 ], [ 113.139032561123173, 23.815755509153099 ], [ 112.979684116113503, 24.243461733764708 ], [ 112.819266939111458, 24.67097596188222 ], [ 112.657752733345916, 25.098293393732916 ], [ 112.495112611628443, 25.525409138465982 ], [ 112.331317076202026, 25.952318210774763 ], [ 112.166335997917599, 26.379015527394145 ], [ 112.000138594710378, 26.805495903467399 ], [ 111.832693409346945, 27.231754048776722 ], [ 111.66396828641291, 27.657784563831431 ], [ 111.493930348509267, 28.083581935807448 ], [ 111.322545971624905, 28.509140534331401 ], [ 111.149780759650696, 28.934454607102342 ], [ 110.975599517999541, 29.359518275343827 ], [ 110.799966226295098, 29.7843255290786 ], [ 110.62284401009029, 30.20887022221785 ], [ 110.444195111575155, 30.633146067456671 ], [ 110.263980859231793, 31.05714663096672 ], [ 110.082161636392314, 31.480865326876881 ], [ 109.89869684865414, 31.904295411532033 ], [ 109.713544890104586, 32.327429977519891 ], [ 109.526663108304959, 32.75026194745486 ], [ 109.338007767982276, 33.172784067507713 ], [ 109.147534013374411, 33.594988900669243 ], [ 108.955195829172254, 34.016868819735301 ], [ 108.760946, 34.438416 ] ] ] } },
{ "type": "Feature", "properties": { "Date": "2023-05-09T00:00:00", "Flight Number": "CZ8830", "Departure": "XIY", "Arrival": "PKX", "Aircraft": "Airbus A320", "Aircraft Registration": "B6977", "Class": "Economy", "Departure Latitude": 34.438416, "Departure Longitude": 108.760946, "Arrival Latitude": 39.508611, "Arrival Longitude": 116.410833, "Route": "XIY<->PKX", "Distance": "882 km", "No. flight": 3 }, "geometry": { "type": "MultiLineString", "coordinates": [ [ [ 108.760946, 34.438416 ], [ 109.183695848790478, 34.749813010900468 ], [ 109.609623331627844, 35.05971562821464 ], [ 110.038773911193971, 35.368095625090753 ], [ 110.471193151323874, 35.674924317085001 ], [ 110.906926692317882, 35.980172556373134 ], [ 111.346020224633492, 36.283810726131193 ], [ 111.788519460895373, 36.58580873510433 ], [ 112.234470106161197, 36.886136012383957 ], [ 112.683917826380807, 37.184761502414254 ], [ 113.136908214986207, 37.481653660250302 ], [ 113.593486757549471, 37.77678044709139 ], [ 114.05369879444649, 38.070109326113645 ], [ 114.51758948146481, 38.361607258628148 ], [ 114.985203748294566, 38.651240700590968 ], [ 115.456586254843003, 38.938975599493617 ], [ 115.931781345314533, 39.224777391662741 ], [ 116.410833, 39.508611 ] ] ] } },
{ "type": "Feature", "properties": { "Date": "2023-06-19T00:00:00", "Flight Number": "CZ6938", "Departure": "XIY", "Arrival": "DLC", "Aircraft": "Airbus A321", "Aircraft Registration": "B2287", "Class": "Economy", "Departure Latitude": 34.438416, "Departure Longitude": 108.760946, "Arrival Latitude": 38.96102, "Arrival Longitude": 121.539991, "Route": "XIY<->DLC", "Distance": "1245 km", "No. flight": 3 }, "geometry": { "type": "MultiLineString", "coordinates": [ [ [ 108.760946, 34.438416 ], [ 109.263398720907219, 34.653199951608521 ], [ 109.768437531629047, 34.865895348473437 ], [ 110.276070704614014, 35.076475070851906 ], [ 110.78630565526278, 35.28491188040924 ], [ 111.299148913422798, 35.491178427903428 ], [ 111.814606094716353, 35.695247261260604 ], [ 112.332681871744143, 35.897090834047553 ], [ 112.853379945208786, 36.096681514345946 ], [ 113.376703015005944, 36.293991594033159 ], [ 113.902652751332582, 36.488993298473538 ], [ 114.431229765865169, 36.68165879662353 ], [ 114.96243358306296, 36.871960211553223 ], [ 115.496262611654316, 37.059869631386292 ], [ 116.032714116366066, 37.245359120659636 ], [ 116.571784189959473, 37.428400732102716 ], [ 117.113467725637548, 37.608966518836489 ], [ 117.657758389891995, 37.787028546990094 ], [ 118.204648595859595, 37.962558908733044 ], [ 118.754129477260321, 38.135529735719658 ], [ 119.306190862991656, 38.305913212940879 ], [ 119.860821252455182, 38.473681592978259 ], [ 120.418007791693412, 38.638807210653255 ], [ 120.977736250416584, 38.80126249806392 ], [ 121.539991, 38.96102 ] ] ] } },
{ "type": "Feature", "properties": { "Date": "2023-06-26T00:00:00", "Flight Number": "CZ6415", "Departure": "SHE", "Arrival": "XIY", "Aircraft": "Airbus A320", "Aircraft Registration": "B301G", "Class": "Economy", "Departure Latitude": 41.634992, "Departure Longitude": 123.485731, "Arrival Latitude": 34.438416, "Arrival Longitude": 108.760946, "Route": "XIY<->SHE", "Distance": "1516 km", "No. flight": 1 }, "geometry": { "type": "MultiLineString", "coordinates": [ [ [ 123.485731, 41.634992 ], [ 122.94692837880423, 41.427153598038686 ], [ 122.411571953261642, 41.216800414674061 ], [ 121.87965489241374, 41.003966599568585 ], [ 121.351168934764118, 40.788686130074048 ], [ 120.826104441084212, 40.570992798552808 ], [ 120.304450446799208, 40.350920200404055 ], [ 119.786194713867417, 40.128501722781579 ], [ 119.271323782073765, 39.903770533988826 ], [ 118.759823019664012, 39.676759573535733 ], [ 118.251676673252746, 39.447501542841813 ], [ 117.746867916944495, 39.216028896568737 ], [ 117.245378900612735, 38.982373834565784 ], [ 116.747190797287686, 38.746568294410565 ], [ 116.252283849609114, 38.50864394452752 ], [ 115.760637415305183, 38.268632177866344 ], [ 115.272230011664206, 38.026564106122009 ], [ 114.787039358969849, 37.782470554478472 ], [ 114.305042422875786, 37.536382056857619 ], [ 113.826215455699483, 37.288328851655422 ], [ 113.350534036618811, 37.038340877946816 ], [ 112.877973110759498, 36.786447772141621 ], [ 112.408507027164063, 36.532678865073272 ], [ 111.942109575637147, 36.277063179502797 ], [ 111.478754022464699, 36.019629428020473 ], [ 111.018413145007059, 35.760406011328094 ], [ 110.56105926516959, 35.499421016884632 ], [ 110.106664281755869, 35.236702217898873 ], [ 109.655199701711538, 34.972277072652773 ], [ 109.206636670268296, 34.706172724139364 ], [ 108.760946, 34.438416 ] ] ] } },
{ "type": "Feature", "properties": { "Date": "2023-07-04T00:00:00", "Flight Number": "CZ8830", "Departure": "XIY", "Arrival": "PKX", "Aircraft": "Airbus A321", "Aircraft Registration": "B323F", "Class": "Economy", "Departure Latitude": 34.438416, "Departure Longitude": 108.760946, "Arrival Latitude": 39.508611, "Arrival Longitude": 116.410833, "Route": "XIY<->PKX", "Distance": "882 km", "No. flight": 3 }, "geometry": { "type": "MultiLineString", "coordinates": [ [ [ 108.760946, 34.438416 ], [ 109.183695848790478, 34.749813010900468 ], [ 109.609623331627844, 35.05971562821464 ], [ 110.038773911193971, 35.368095625090753 ], [ 110.471193151323874, 35.674924317085001 ], [ 110.906926692317882, 35.980172556373134 ], [ 111.346020224633492, 36.283810726131193 ], [ 111.788519460895373, 36.58580873510433 ], [ 112.234470106161197, 36.886136012383957 ], [ 112.683917826380807, 37.184761502414254 ], [ 113.136908214986207, 37.481653660250302 ], [ 113.593486757549471, 37.77678044709139 ], [ 114.05369879444649, 38.070109326113645 ], [ 114.51758948146481, 38.361607258628148 ], [ 114.985203748294566, 38.651240700590968 ], [ 115.456586254843003, 38.938975599493617 ], [ 115.931781345314533, 39.224777391662741 ], [ 116.410833, 39.508611 ] ] ] } },
{ "type": "Feature", "properties": { "Date": "2023-07-06T00:00:00", "Flight Number": "CZ6948", "Departure": "PKX", "Arrival": "XIY", "Aircraft": "Airbus A321", "Aircraft Registration": "B1843", "Class": "Economy", "Departure Latitude": 39.508611, "Departure Longitude": 116.410833, "Arrival Latitude": 34.438416, "Arrival Longitude": 108.760946, "Route": "XIY<->PKX", "Distance": "882 km", "No. flight": 3 }, "geometry": { "type": "MultiLineString", "coordinates": [ [ [ 116.410833, 39.508611 ], [ 115.931781345314533, 39.224777391662734 ], [ 115.456586254842989, 38.938975599493602 ], [ 114.985203748294552, 38.651240700590961 ], [ 114.517589481464796, 38.361607258628133 ], [ 114.05369879444649, 38.070109326113638 ], [ 113.593486757549456, 37.776780447091376 ], [ 113.136908214986192, 37.481653660250288 ], [ 112.683917826380792, 37.18476150241424 ], [ 112.234470106161183, 36.88613601238395 ], [ 111.788519460895358, 36.585808735104315 ], [ 111.346020224633477, 36.283810726131179 ], [ 110.906926692317867, 35.98017255637312 ], [ 110.47119315132386, 35.674924317084987 ], [ 110.038773911193957, 35.368095625090746 ], [ 109.60962333162783, 35.05971562821464 ], [ 109.183695848790464, 34.749813010900446 ], [ 108.760946, 34.438416 ] ] ] } },
{ "type": "Feature", "properties": { "Date": "2023-08-15T00:00:00", "Flight Number": "CZ6622", "Departure": "XIY", "Arrival": "SZX", "Aircraft": "Airbus A330", "Aircraft Registration": "B8360", "Class": "Economy", "Departure Latitude": 34.438416, "Departure Longitude": 108.760946, "Arrival Latitude": 22.639444, "Arrival Longitude": 113.810833, "Route": "XIY<->SZX", "Distance": "1397 km", "No. flight": 3 }, "geometry": { "type": "MultiLineString", "coordinates": [ [ [ 108.760946, 34.438416 ], [ 108.970469346092614, 34.005530291156695 ], [ 109.17787635458447, 33.572260766624808 ], [ 109.383220530611325, 33.138616748918821 ], [ 109.586553995761378, 32.704607318563589 ], [ 109.787927535413459, 32.270241323212758 ], [ 109.987390644363273, 31.835527386397448 ], [ 110.184991570805693, 31.400473915922014 ], [ 110.380777358738612, 30.965089111922907 ], [ 110.574793888851417, 30.52938097460601 ], [ 110.767085917958255, 30.093357311676908 ], [ 110.95769711703457, 29.657025745477878 ], [ 111.146670107912556, 29.220393719844786 ], [ 111.334046498689219, 28.783468506696444 ], [ 111.519866917898582, 28.346257212368275 ], [ 111.704171047497496, 27.90876678370169 ], [ 111.886997654712644, 27.471004013899954 ], [ 112.068384622794298, 27.032975548160884 ], [ 112.248368980720599, 26.594687889096143 ], [ 112.426986931894533, 26.156147401946516 ], [ 112.604273881873951, 25.717360319602097 ], [ 112.780264465173275, 25.278332747435829 ], [ 112.954992571174301, 24.839070667958634 ], [ 113.128491369181788, 24.399579945303664 ], [ 113.300793332657975, 23.959866329547332 ], [ 113.471930262669318, 23.519935460873956 ], [ 113.641933310576718, 23.079792873590794 ], [ 113.810833, 22.639444 ] ] ] } },
{ "type": "Feature", "properties": { "Date": "2023-08-17T00:00:00", "Flight Number": "TK73", "Departure": "CAN", "Arrival": "IST", "Aircraft": "Boeing 777", "Aircraft Registration": "TCLJG", "Class": "Economy", "Departure Latitude": 23.387862, "Departure Longitude": 113.29734, "Arrival Latitude": 41.260278, "Arrival Longitude": 28.741944, "Route": "IST<->CAN", "Distance": "7897 km", "No. flight": 1 }, "geometry": { "type": "MultiLineString", "coordinates": [ [ [ 113.29734, 23.387862 ], [ 112.906624961054845, 23.664427503793799 ], [ 112.514265755558782, 23.939993989628999 ], [ 112.120239851056567, 24.214544285025056 ], [ 111.724524739412288, 24.488061047367115 ], [ 111.327097943650585, 24.760526762164986 ], [ 110.927937025131271, 25.031923741367436 ], [ 110.527019591065581, 25.302234121735275 ], [ 110.124323302382706, 25.571439863277281 ], [ 109.719825881955074, 25.839522747752692 ], [ 109.313505123190836, 26.106464377244624 ], [ 108.905338899002032, 26.372246172808453 ], [ 108.495305171156645, 26.636849373199752 ], [ 108.083382000022709, 26.900255033686296 ], [ 107.669547554712835, 27.162444024948801 ], [ 107.25378012363673, 27.423397032075421 ], [ 106.836058125469492, 27.683094553654882 ], [ 106.41636012054343, 27.941516900973514 ], [ 105.994664822670345, 28.198644197321599 ], [ 105.570951111401314, 28.454456377414409 ], [ 105.14519804473079, 28.708933186933642 ], [ 104.717384872250889, 28.962054182195153 ], [ 104.287491048762135, 29.213798729948788 ], [ 103.855496248345716, 29.464146007316536 ], [ 103.421380378902398, 29.713075001875261 ], [ 102.985123597162271, 29.960564511890269 ], [ 102.546706324169378, 30.206593146706467 ], [ 102.10610926124383, 30.451139327303618 ], [ 101.663313406424521, 30.694181287022484 ], [ 101.218300071393728, 30.935697072468802 ], [ 100.771050898884255, 31.175664544602235 ], [ 100.32154788056998, 31.414061380017145 ], [ 99.869773375437859, 31.650865072422651 ], [ 99.415710128640313, 31.88605293432926 ], [ 98.959341290824725, 32.119602098949201 ], [ 98.500650437936088, 32.351489522318246 ], [ 98.039621591487446, 32.581691985646309 ], [ 97.576239239291979, 32.810186097904271 ], [ 97.11048835664873, 33.036948298654735 ], [ 96.64235442797299, 33.261954861134235 ], [ 96.171823468860552, 33.485181895594231 ], [ 95.698882048574049, 33.70660535290861 ], [ 95.22351731293756, 33.926201028454962 ], [ 94.74571700762408, 34.143944566277042 ], [ 94.26546950181914, 34.359811463535685 ], [ 93.782763812241441, 34.573777075255258 ], [ 93.297589627500173, 34.785816619372575 ], [ 92.80993733276641, 34.995905182095278 ], [ 92.319798034734021, 35.204017723575987 ], [ 91.827163586843895, 35.410129083908828 ], [ 91.332026614742489, 35.614213989454271 ], [ 90.834380541944796, 35.816247059498181 ], [ 90.334219615668161, 36.016202813250423 ], [ 89.831538932802644, 36.214055677188384 ], [ 89.326334465980466, 36.409779992749748 ], [ 88.818603089705192, 36.603350024379154 ], [ 88.30834260649911, 36.794739967932315 ], [ 87.795551773024982, 36.983923959441078 ], [ 87.280230326135793, 37.170876084241947 ], [ 86.762379008804473, 37.355570386470511 ], [ 86.241999595882746, 37.537980878923143 ], [ 85.719094919636461, 37.718081553286936 ], [ 85.19366889500256, 37.895846390738058 ], [ 84.665726544510449, 38.071249372907971 ], [ 84.135274022809085, 38.244264493216178 ], [ 83.602318640738361, 38.414865768567445 ], [ 83.066868888882553, 38.583027251410357 ], [ 82.528934460540654, 38.748723042153493 ], [ 81.988526274047857, 38.911927301934256 ], [ 81.445656494380316, 39.072614265734806 ], [ 80.900338553974251, 39.23075825583809 ], [ 80.352587172689169, 39.386333695616436 ], [ 79.802418376844059, 39.539315123643739 ], [ 79.249849517254731, 39.689677208121495 ], [ 78.694899286199458, 39.837394761607577 ], [ 78.137587733240551, 39.982442756035653 ], [ 77.57793627982835, 40.124796338012274 ], [ 77.015967732615167, 40.264430844376925 ], [ 76.451706295406552, 40.401321818009812 ], [ 75.885177579678256, 40.535445023870587 ], [ 75.316408613588138, 40.666776465250237 ], [ 74.745427849413602, 40.795292400217257 ], [ 74.172265169346559, 40.920969358237961 ], [ 73.596951889580254, 41.043784156949677 ], [ 73.019520762624211, 41.163713919064691 ], [ 72.440005977786171, 41.280736089381435 ], [ 71.858443159762942, 41.394828451878581 ], [ 71.274869365285554, 41.50596914686664 ], [ 70.689323077767014, 41.61413668817071 ], [ 70.101844199905827, 41.719309980317085 ], [ 69.512474044202008, 41.821468335695727 ], [ 68.921255321347431, 41.920591491669519 ], [ 68.328232126456697, 42.016659627601015 ], [ 67.733449923110641, 42.109653381765995 ], [ 67.136955525189563, 42.199553868123509 ], [ 66.538797076479426, 42.286342692910708 ], [ 65.939024028039739, 42.370001971031122 ], [ 65.337687113329309, 42.450514342204087 ], [ 64.734838321090919, 42.527862986843452 ], [ 64.130530866004136, 42.602031641633154 ], [ 63.524819157121541, 42.673004614767407 ], [ 62.917758764110765, 42.740766800823586 ], [ 62.309406381331662, 42.805303695235573 ], [ 61.699819789785678, 42.866601408336386 ], [ 61.089057816980748, 42.924646678938963 ], [ 60.477180294762832, 42.979426887424417 ], [ 59.864248015172215, 43.030930068308287 ], [ 59.250322684389403, 43.079144922255601 ], [ 58.635466874842898, 43.124060827516985 ], [ 58.019743975556977, 43.165667850758588 ], [ 57.403218140825466, 43.203956757260229 ], [ 56.785954237302342, 43.238919020457153 ], [ 56.168017789607227, 43.270546830802203 ], [ 55.549474924548711, 43.298833103926789 ], [ 54.930392314074375, 43.32377148808051 ], [ 54.310837117061027, 43.345356370830892 ], [ 53.69087692006363, 43.363582885006572 ], [ 53.070579677144835, 43.378446913868984 ], [ 52.450013648911735, 43.389945095499563 ], [ 51.829247340888806, 43.398074826391095 ], [ 51.208349441358841, 43.402834264234528 ], [ 50.587388758806441, 43.404222329893621 ], [ 49.96643415909935, 43.40223870856282 ], [ 49.345554502544672, 43.396883850105155 ], [ 48.724818580957262, 43.388158968569428 ], [ 48.104295054877312, 43.376066040887707 ], [ 47.484052391074385, 43.360607804756818 ], [ 46.864158800472453, 43.341787755708914 ], [ 46.244682176630775, 43.319610143378718 ], [ 45.625690034911102, 43.294079966976966 ], [ 45.007249452460854, 43.265202969981416 ], [ 44.389427009136853, 43.232985634058878 ], [ 43.77228872949226, 43.197435172233554 ], [ 43.155900025943168, 43.158559521318558 ], [ 42.540325643228428, 43.11636733362959 ], [ 41.925629604270142, 43.070867968001167 ], [ 41.311875157536846, 43.022071480127096 ], [ 40.699124726006531, 42.969988612249018 ], [ 40.087439857819462, 42.91463078221738 ], [ 39.476881178704971, 42.856010071951168 ], [ 38.867508346259669, 42.794139215323383 ], [ 38.259380006148291, 42.729031585500458 ], [ 37.652553750290267, 42.660701181764786 ], [ 37.047086077089418, 42.589162615850142 ], [ 36.443032353756081, 42.51443109782079 ], [ 35.840446780764253, 42.436522421525069 ], [ 35.239382358479375, 42.355452949655486 ], [ 34.639890855984447, 42.27123959844684 ], [ 34.042022782126367, 42.183899822044786 ], [ 33.445827358795881, 42.093451596577005 ], [ 32.851352496449465, 41.99991340395917 ], [ 32.258644771873122, 41.903304215467891 ], [ 31.667749408182985, 41.803643475112729 ], [ 31.078710257050119, 41.700951082838415 ], [ 30.491569783132491, 41.595247377589146 ], [ 29.906369050689406, 41.486553120265057 ], [ 29.32314771234978, 41.374889476601467 ], [ 28.741944, 41.260278 ] ] ] } },
{ "type": "Feature", "properties": { "Date": "2023-08-18T00:00:00", "Flight Number": "TK1917", "Departure": "IST", "Arrival": "GVA", "Aircraft": "Airbus A321", "Aircraft Registration": "TCLSZ", "Class": "Economy", "Departure Latitude": 41.260278, "Departure Longitude": 28.741944, "Arrival Latitude": 46.229634, "Arrival Longitude": 6.105774, "Route": "IST<->GVA", "Distance": "1897 km", "No. flight": 3 }, "geometry": { "type": "MultiLineString", "coordinates": [ [ [ 28.741944, 41.260278 ], [ 28.18353970134935, 41.450578657360673 ], [ 27.621885758222088, 41.63814681200153 ], [ 27.056989514636051, 41.822948813195595 ], [ 26.488860082666612, 42.004951008002486 ], [ 25.917508386194754, 42.184119760292809 ], [ 25.34294720367879, 42.360421470445019 ], [ 24.765191209805565, 42.533822595707271 ], [ 24.184257015873396, 42.704289671215221 ], [ 23.600163208754534, 42.871789331654078 ], [ 23.012930388281923, 43.036288333551099 ], [ 22.422581202901778, 43.197753578182272 ], [ 21.829140383431316, 43.356152135074581 ], [ 21.232634774758761, 43.511451266082602 ], [ 20.63309336532177, 43.663618450015541 ], [ 20.030547314199666, 43.812621407788583 ], [ 19.425029975655004, 43.958428128069194 ], [ 18.816576920960738, 44.101006893386852 ], [ 18.205225957351157, 44.240326306671626 ], [ 17.591017143936959, 44.376355318184679 ], [ 16.973992804428363, 44.509063252800509 ], [ 16.354197536514199, 44.638419837598967 ], [ 15.731678217750385, 44.764395229721671 ], [ 15.106484007817022, 44.88696004444521 ], [ 14.478666347010506, 45.006085383421279 ], [ 13.84827895084511, 45.121742863031194 ], [ 13.215377800647499, 45.233904642800127 ], [ 12.580021130037512, 45.342543453814251 ], [ 11.942269407199557, 45.447632627082143 ], [ 11.302185312860718, 45.549146121779586 ], [ 10.659833713904387, 45.647058553315986 ], [ 10.015281632562054, 45.741345221158326 ], [ 9.36859821113968, 45.831982136348131 ], [ 8.719854672251135, 45.91894604864553 ], [ 8.06912427454596, 46.002214473233785 ], [ 7.416482263936086, 46.081765716917381 ], [ 6.762005820342406, 46.157578903746405 ], [ 6.105774, 46.229634 ] ] ] } },
{ "type": "Feature", "properties": { "Date": "2024-02-07T00:00:00", "Flight Number": "LX2092", "Departure": "GVA", "Arrival": "LIS", "Aircraft": "Airbus A220", "Aircraft Registration": "HBJBE", "Class": "Economy", "Departure Latitude": 46.229634, "Departure Longitude": 6.105774, "Arrival Latitude": 38.770043, "Arrival Longitude": -9.128165, "Route": "LIS<->GVA", "Distance": "1497 km", "No. flight": 1 }, "geometry": { "type": "MultiLineString", "coordinates": [ [ [ 6.105774, 46.229634 ], [ 5.517875559453755, 46.008964699023849 ], [ 4.934665798600823, 45.785286712436928 ], [ 4.356132919358969, 45.558646797368894 ], [ 3.782262706704825, 45.329091392808991 ], [ 3.213038637349861, 45.096666597835444 ], [ 2.648441987086585, 44.861418151319199 ], [ 2.088451936595463, 44.623391413064532 ], [ 1.533045675523348, 44.382631346347011 ], [ 0.982198504664112, 44.139182501807852 ], [ 0.435883936090938, 43.893089002661789 ], [ -0.105926208892242, 43.644394531175081 ], [ -0.643261704095099, 43.393142316368966 ], [ -1.176153825180024, 43.139375122903402 ], [ -1.704635258878957, 42.883135241095744 ], [ -2.228740014757012, 42.624464478028401 ], [ -2.748503339577303, 42.363404149700159 ], [ -3.263961634309652, 42.099995074175268 ], [ -3.775152373813, 41.834277565685682 ], [ -4.282114029211026, 41.566291429641268 ], [ -4.784885992969768, 41.296075958504552 ], [ -5.283508506676966, 41.023669928486321 ], [ -5.778022591514315, 40.749111597019926 ], [ -6.268469981405607, 40.472438700972582 ], [ -6.754893058817391, 40.193688455553428 ], [ -7.237334793181539, 39.912897553878636 ], [ -7.715838681904376, 39.630102167155471 ], [ -8.190448693921107, 39.345337945448016 ], [ -8.661209215750432, 39.058640018988555 ], [ -9.128165, 38.770043 ] ] ] } },
{ "type": "Feature", "properties": { "Date": "2024-02-09T00:00:00", "Flight Number": "UX1152", "Departure": "LIS", "Arrival": "MAD", "Aircraft": "Boeing 737", "Aircraft Registration": "ECMPS", "Class": "Economy", "Departure Latitude": 38.770043, "Departure Longitude": -9.128165, "Arrival Latitude": 40.49027, "Arrival Longitude": -3.564479, "Route": "MAD<->LIS", "Distance": "514 km", "No. flight": 1 }, "geometry": { "type": "MultiLineString", "coordinates": [ [ [ -9.128165, 38.770043 ], [ -8.584272515452334, 38.953907701310499 ], [ -8.037581748029204, 39.135219090879495 ], [ -7.488099862125629, 39.313947755183825 ], [ -6.935835423872158, 39.490064303313318 ], [ -6.380798431516427, 39.663539382014797 ], [ -5.823000345034131, 39.834343691207764 ], [ -5.262454114875796, 40.002447999965483 ], [ -4.699174209753822, 40.167823162953432 ], [ -4.133176643372307, 40.330440137315883 ], [ -3.564479, 40.49027 ] ] ] } },
{ "type": "Feature", "properties": { "Date": "2024-04-05T00:00:00", "Flight Number": "U24223", "Departure": "NAP", "Arrival": "GVA", "Aircraft": "Airbus A320", "Aircraft Registration": "OEIVF", "Class": "Economy", "Departure Latitude": 40.886111, "Departure Longitude": 14.291667, "Arrival Latitude": 46.229634, "Arrival Longitude": 6.105774, "Route": "NAP<->GVA", "Distance": "887 km", "No. flight": 2 }, "geometry": { "type": "MultiLineString", "coordinates": [ [ [ 14.291667, 40.886111 ], [ 13.8487962709467, 41.215952860194456 ], [ 13.401465493985762, 41.544055541107184 ], [ 12.94960147857676, 41.870381792292306 ], [ 12.493130576904424, 42.194893585112887 ], [ 12.031978729191302, 42.517552099538094 ], [ 11.566071512994817, 42.838317711174327 ], [ 11.095334196693603, 43.15714997857539 ], [ 10.619691797372861, 43.474007630880102 ], [ 10.139069143322587, 43.788848555829283 ], [ 9.653390941366116, 44.101629788217323 ], [ 9.162581849238958, 44.41230749883767 ], [ 8.666566553240433, 44.720836983984995 ], [ 8.165269851380845, 45.027172655581246 ], [ 7.658616742247548, 45.331268031996181 ], [ 7.146532519811387, 45.633075729638001 ], [ 6.628942874392485, 45.932547455393255 ], [ 6.105774, 46.229634 ] ] ] } },
{ "type": "Feature", "properties": { "Date": "2024-07-08T00:00:00", "Flight Number": "TK1920", "Departure": "GVA", "Arrival": "IST", "Aircraft": "Airbus A330", "Aircraft Registration": "TCLOB", "Class": "Economy", "Departure Latitude": 46.229634, "Departure Longitude": 6.105774, "Arrival Latitude": 41.260278, "Arrival Longitude": 28.741944, "Route": "IST<->GVA", "Distance": "1897 km", "No. flight": 3 }, "geometry": { "type": "MultiLineString", "coordinates": [ [ [ 6.105774, 46.229634 ], [ 6.762005820342401, 46.157578903746405 ], [ 7.416482263936074, 46.081765716917396 ], [ 8.069124274545956, 46.002214473233792 ], [ 8.719854672251129, 45.918946048645537 ], [ 9.368598211139682, 45.831982136348138 ], [ 10.015281632562047, 45.741345221158326 ], [ 10.659833713904387, 45.647058553315993 ], [ 11.302185312860706, 45.549146121779593 ], [ 11.942269407199552, 45.44763262708215 ], [ 12.580021130037499, 45.342543453814265 ], [ 13.21537780064749, 45.233904642800127 ], [ 13.848278950845099, 45.121742863031209 ], [ 14.478666347010499, 45.006085383421286 ], [ 15.106484007817015, 44.886960044445225 ], [ 15.731678217750376, 44.764395229721686 ], [ 16.354197536514189, 44.638419837598974 ], [ 16.973992804428363, 44.509063252800509 ], [ 17.591017143936966, 44.376355318184686 ], [ 18.205225957351153, 44.240326306671641 ], [ 18.816576920960728, 44.10100689338686 ], [ 19.425029975655001, 43.958428128069201 ], [ 20.030547314199662, 43.812621407788583 ], [ 20.633093365321752, 43.663618450015548 ], [ 21.23263477475875, 43.511451266082609 ], [ 21.829140383431309, 43.356152135074588 ], [ 22.422581202901767, 43.197753578182272 ], [ 23.012930388281916, 43.036288333551099 ], [ 23.600163208754527, 42.871789331654085 ], [ 24.184257015873385, 42.704289671215221 ], [ 24.765191209805561, 42.533822595707271 ], [ 25.342947203678783, 42.360421470445026 ], [ 25.917508386194751, 42.184119760292816 ], [ 26.488860082666605, 42.004951008002486 ], [ 27.056989514636047, 41.822948813195602 ], [ 27.621885758222085, 41.638146812001537 ], [ 28.183539701349339, 41.45057865736068 ], [ 28.741944, 41.260278 ] ] ] } },
{ "type": "Feature", "properties": { "Date": "2024-07-09T00:00:00", "Flight Number": "TK88", "Departure": "IST", "Arrival": "PEK", "Aircraft": "Boeing 777", "Aircraft Registration": "TCLJA", "Class": "Economy", "Departure Latitude": 41.260278, "Departure Longitude": 28.741944, "Arrival Latitude": 40.078538, "Arrival Longitude": 116.587095, "Route": "PEK<->IST", "Distance": "7078 km", "No. flight": 1 }, "geometry": { "type": "MultiLineString", "coordinates": [ [ [ 28.741944, 41.260278 ], [ 29.255523470645613, 41.494114989613493 ], [ 29.772791885890808, 41.725632839627117 ], [ 30.293768558022606, 41.954796272716109 ], [ 30.818471544644414, 42.181569718558592 ], [ 31.346917587149555, 42.405917323939214 ], [ 31.879122048120692, 42.627802963637023 ], [ 32.41509884773572, 42.847190252119368 ], [ 32.954860399269037, 43.064042556063363 ], [ 33.498417543786559, 43.278323007725284 ], [ 34.045779484141448, 43.489994519177301 ], [ 34.596953718387923, 43.699019797429735 ], [ 35.151945972739348, 43.905361360455942 ], [ 35.710760134207398, 44.10898155413507 ], [ 36.273398183068707, 44.309842570126605 ], [ 36.839860125315901, 44.50790646468856 ], [ 37.410143925259568, 44.703135178449529 ], [ 37.984245438458402, 44.895490557142125 ], [ 38.562158345164477, 45.084934373303533 ], [ 39.14387408448043, 45.271428348945946 ], [ 39.729381789435365, 45.454934179197274 ], [ 40.318668223195061, 45.635413556909313 ], [ 40.911717716631749, 45.812828198227763 ], [ 41.508512107486254, 45.98713986911514 ], [ 42.109030681364317, 46.158310412814139 ], [ 42.713250114815075, 46.326301778235532 ], [ 43.321144420747032, 46.491076049250957 ], [ 43.932684896441771, 46.652595474866956 ], [ 44.547840074430781, 46.810822500252925 ], [ 45.166575676504387, 46.965719798590946 ], [ 45.788854571123679, 47.117250303711941 ], [ 46.414636734508207, 47.26537724347785 ], [ 47.043879215671708, 47.410064173865102 ], [ 47.676536105676242, 47.551275013700597 ], [ 48.312558511372842, 47.68897407999664 ], [ 48.951894533890886, 47.823126123827016 ], [ 49.594489252133172, 47.953696366682067 ], [ 50.240284711524509, 48.080650537235954 ], [ 50.889219918252479, 48.203954908455508 ], [ 51.541230839226941, 48.323576334975755 ], [ 52.196250407971128, 48.439482290662944 ], [ 52.854208536642275, 48.551640906282785 ], [ 53.515032134361675, 48.660021007187432 ], [ 54.178645132015802, 48.764592150931826 ], [ 54.844968513668618, 48.865324664726757 ], [ 55.513920354703004, 48.962189682633614 ], [ 56.185415866784574, 49.055159182403145 ], [ 56.859367449716231, 49.144206021858807 ], [ 57.53568475022351, 49.22930397472367 ], [ 58.214274727683232, 49.310427765788752 ], [ 58.895041726778032, 49.387553105320023 ], [ 59.577887557028852, 49.460656722601293 ], [ 60.262711579126105, 49.529716398510217 ], [ 60.949410797948559, 49.594710997026041 ], [ 61.637879962126789, 49.655620495568677 ], [ 62.328011669975453, 49.712426014070843 ], [ 63.019696481587189, 49.765109842687657 ], [ 63.712823036848206, 49.813655468050683 ], [ 64.407278179105532, 49.858047597977524 ], [ 65.102947084184663, 49.898272184551857 ], [ 65.79971339442821, 49.934316445493366 ], [ 66.497459357397588, 49.966168883742512 ], [ 67.196065968854185, 49.993819305190179 ], [ 67.895413119612058, 50.017258834488842 ], [ 68.595379745832147, 50.036479928887431 ], [ 69.295843982307915, 50.051476390040236 ], [ 69.99668331827516, 50.062243373745702 ], [ 70.697774755263666, 50.068777397579865 ], [ 71.398994966496574, 50.071076346395728 ], [ 72.100220457334089, 50.069139475668386 ], [ 72.801327726251898, 50.062967412673395 ], [ 73.502193425841398, 50.052562155493909 ], [ 74.202694523319309, 50.03792706986048 ], [ 74.902708460035768, 50.019066883835045 ], [ 75.602113309478128, 49.995987680359043 ], [ 76.300787933274037, 49.968696887693156 ], [ 76.998612134711564, 49.937203267783921 ], [ 77.695466809306836, 49.901516902600029 ], [ 78.391234091968101, 49.861649178488072 ], [ 79.085797500324091, 49.817612768604391 ], [ 79.779042073806892, 49.769421613486344 ], [ 80.470854508103585, 49.717090899832023 ], [ 81.161123284616352, 49.660637037563362 ], [ 81.84973879459929, 49.600077635252603 ], [ 82.536593457668118, 49.535431473996788 ], [ 83.221581834410102, 49.466718479829076 ], [ 83.904600732851534, 49.39395969475931 ], [ 84.585549308573093, 49.317177246539472 ], [ 85.264329158293961, 49.23639431725195 ], [ 85.94084440677976, 49.15163511082087 ], [ 86.615001786959539, 49.062924819547845 ], [ 87.286710713170592, 48.970289589774865 ], [ 87.955883347480324, 48.873756486776998 ], [ 88.622434659065121, 48.773353458987778 ], [ 89.286282476655913, 48.669109301659425 ], [ 89.947347534089062, 48.561053620059155 ], [ 90.60555350902743, 48.449216792301002 ], [ 91.260827054943789, 48.333629931911048 ], [ 91.913097826481859, 48.214324850221402 ], [ 92.562298498333533, 48.091334018685728 ], [ 93.2083647777919, 47.964690531205989 ], [ 93.85123541115918, 47.834428066557081 ], [ 94.490852184204712, 47.700580850992218 ], [ 95.127159916886171, 47.56318362110828 ], [ 95.760106452558418, 47.422271587046488 ], [ 96.389642641908068, 47.277880396099441 ], [ 97.015722321860878, 47.130046096791631 ], [ 97.638302289717998, 46.97880510349593 ], [ 98.257342272783447, 46.824194161644215 ], [ 98.872804893749688, 46.666250313586147 ], [ 99.484655632112293, 46.505010865145266 ], [ 100.092862781885387, 46.340513352917441 ], [ 100.697397405890896, 46.17279551235233 ], [ 101.29823328689244, 46.001895246653866 ], [ 101.895346875843572, 45.827850596532123 ], [ 102.488717237515317, 45.650699710834218 ], [ 103.078325993764594, 45.470480818078222 ], [ 103.664157264698588, 45.287232198910054 ], [ 104.246197607984314, 45.100992159499725 ], [ 104.824435956545003, 44.911799005889456 ], [ 105.398863554878005, 44.719691019302914 ], [ 105.96947389421868, 44.524706432421773 ], [ 106.536262646768179, 44.326883406632277 ], [ 107.099227599191636, 44.126260010241822 ], [ 107.658368585584896, 43.922874197663056 ], [ 108.213687420097543, 43.71676378955992 ], [ 108.765187829390101, 43.507966453948271 ], [ 109.312875385093051, 43.296519688241105 ], [ 109.856757436425482, 43.082460802226677 ], [ 110.396843043120384, 42.86582690196574 ], [ 110.933142908794366, 42.646654874592741 ], [ 111.465669314889027, 42.424981374004126 ], [ 111.994436055301819, 42.200842807415547 ], [ 112.519458371814423, 41.974275322768655 ], [ 113.040752890417679, 41.7453147969673 ], [ 113.558337558622924, 41.513996824921612 ], [ 114.072231583840704, 41.280356709378239 ], [ 114.582455372899531, 41.044429451513835 ], [ 115.089030472769949, 40.806249742268932 ], [ 115.591979512549742, 40.56585195439834 ], [ 116.091326146760878, 40.323270135214585 ], [ 116.587095, 40.078538 ] ] ] } },
{ "type": "Feature", "properties": { "Date": "2024-07-09T00:00:00", "Flight Number": "MU5124", "Departure": "PEK", "Arrival": "SHA", "Aircraft": "Airbus A330", "Aircraft Registration": "B6097", "Class": "Economy", "Departure Latitude": 40.078538, "Departure Longitude": 116.587095, "Arrival Latitude": 31.19779, "Arrival Longitude": 121.333473, "Route": "SHA<->PEK", "Distance": "1074 km", "No. flight": 1 }, "geometry": { "type": "MultiLineString", "coordinates": [ [ [ 116.587095, 40.078538 ], [ 116.839014126283956, 39.660547527452557 ], [ 117.087914146727329, 39.241986985553744 ], [ 117.333871275456076, 38.822870640632331 ], [ 117.5769596225866, 38.403212341266837 ], [ 117.817251265003776, 37.983025534277829 ], [ 118.054816314687471, 37.562323280053718 ], [ 118.289722984668131, 37.141118267240273 ], [ 118.522037652690898, 36.71942282682253 ], [ 118.751824922665392, 36.297248945626869 ], [ 118.979147683977601, 35.874608279269196 ], [ 119.204067168737623, 35.451512164574375 ], [ 119.426643007035665, 35.027971631490544 ], [ 119.646933280276841, 34.603997414521054 ], [ 119.864994572663079, 34.179599963695665 ], [ 120.080882020888765, 33.754789455101537 ], [ 120.294649362114555, 33.329575800993439 ], [ 120.506348980282226, 32.903968659502333 ], [ 120.716031950830924, 32.47797744395956 ], [ 120.923748083873846, 32.051611331854041 ], [ 121.129545965891978, 31.624879273438474 ], [ 121.333473, 31.19779 ] ] ] } },
{ "type": "Feature", "properties": { "Date": "2024-07-26T00:00:00", "Flight Number": "HO1235", "Departure": "SHA", "Arrival": "XIY", "Aircraft": "Airbus A321", "Aircraft Registration": "B8956", "Class": "Economy", "Departure Latitude": 31.19779, "Departure Longitude": 121.333473, "Arrival Latitude": 34.438416, "Arrival Longitude": 108.760946, "Route": "XIY<->SHA", "Distance": "1229 km", "No. flight": 5 }, "geometry": { "type": "MultiLineString", "coordinates": [ [ [ 121.333473, 31.19779 ], [ 120.828379932857246, 31.357362218598833 ], [ 120.321588651852366, 31.514935475757969 ], [ 119.813104590238851, 31.670490830488596 ], [ 119.302933848267855, 31.824009401155244 ], [ 118.7910832021727, 31.975472372388932 ], [ 118.277560112822087, 32.124861002145678 ], [ 117.762372734018797, 32.272156628907084 ], [ 117.245529920420665, 32.41734067901924 ], [ 116.727041235060526, 32.560394674165948 ], [ 116.206916956441404, 32.701300238971662 ], [ 115.685168085183591, 32.840039108729712 ], [ 115.161806350199939, 32.976593137250269 ], [ 114.636844214375884, 33.110944304823015 ], [ 114.110294879730873, 33.243074726288185 ], [ 113.582172292037981, 33.37296665921027 ], [ 113.052491144878928, 33.50060251214736 ], [ 112.521266883111778, 33.625964853009499 ], [ 111.988515705729327, 33.749036417498573 ], [ 111.454254568086398, 33.869800117622177 ], [ 110.918501183475058, 33.988239050273428 ], [ 110.381274024027249, 34.104336505868297 ], [ 109.842592320924979, 34.218075977031972 ], [ 109.30247606389932, 34.329441167324994 ], [ 108.760946, 34.438416 ] ] ] } },
{ "type": "Feature", "properties": { "Date": "2024-08-05T00:00:00", "Flight Number": "MU2336", "Departure": "XIY", "Arrival": "SHA", "Aircraft": "COMAC C919", "Aircraft Registration": "B919A", "Class": "Economy", "Departure Latitude": 34.438416, "Departure Longitude": 108.760946, "Arrival Latitude": 31.19779, "Arrival Longitude": 121.333473, "Route": "XIY<->SHA", "Distance": "1229 km", "No. flight": 5 }, "geometry": { "type": "MultiLineString", "coordinates": [ [ [ 108.760946, 34.438416 ], [ 109.30247606389932, 34.329441167325001 ], [ 109.842592320924979, 34.21807597703198 ], [ 110.381274024027249, 34.104336505868304 ], [ 110.918501183475058, 33.988239050273428 ], [ 111.454254568086398, 33.869800117622191 ], [ 111.988515705729327, 33.74903641749858 ], [ 112.521266883111778, 33.625964853009499 ], [ 113.052491144878928, 33.500602512147367 ], [ 113.582172292037981, 33.372966659210277 ], [ 114.110294879730873, 33.243074726288185 ], [ 114.636844214375884, 33.110944304823022 ], [ 115.161806350199939, 32.976593137250283 ], [ 115.685168085183591, 32.840039108729719 ], [ 116.206916956441404, 32.701300238971669 ], [ 116.727041235060526, 32.560394674165956 ], [ 117.245529920420665, 32.417340679019247 ], [ 117.762372734018797, 32.272156628907084 ], [ 118.277560112822087, 32.124861002145678 ], [ 118.7910832021727, 31.975472372388939 ], [ 119.302933848267855, 31.824009401155251 ], [ 119.813104590238865, 31.6704908304886 ], [ 120.321588651852352, 31.514935475757984 ], [ 120.828379932857246, 31.357362218598848 ], [ 121.333473, 31.19779 ] ] ] } },
{ "type": "Feature", "properties": { "Date": "2024-08-31T00:00:00", "Flight Number": "MU2152", "Departure": "SHA", "Arrival": "XIY", "Aircraft": "COMAC C919", "Aircraft Registration": "B919A", "Class": "Economy", "Departure Latitude": 31.19779, "Departure Longitude": 121.333473, "Arrival Latitude": 34.438416, "Arrival Longitude": 108.760946, "Route": "XIY<->SHA", "Distance": "1229 km", "No. flight": 5 }, "geometry": { "type": "MultiLineString", "coordinates": [ [ [ 121.333473, 31.19779 ], [ 120.828379932857246, 31.357362218598833 ], [ 120.321588651852366, 31.514935475757969 ], [ 119.813104590238851, 31.670490830488596 ], [ 119.302933848267855, 31.824009401155244 ], [ 118.7910832021727, 31.975472372388932 ], [ 118.277560112822087, 32.124861002145678 ], [ 117.762372734018797, 32.272156628907084 ], [ 117.245529920420665, 32.41734067901924 ], [ 116.727041235060526, 32.560394674165948 ], [ 116.206916956441404, 32.701300238971662 ], [ 115.685168085183591, 32.840039108729712 ], [ 115.161806350199939, 32.976593137250269 ], [ 114.636844214375884, 33.110944304823015 ], [ 114.110294879730873, 33.243074726288185 ], [ 113.582172292037981, 33.37296665921027 ], [ 113.052491144878928, 33.50060251214736 ], [ 112.521266883111778, 33.625964853009499 ], [ 111.988515705729327, 33.749036417498573 ], [ 111.454254568086398, 33.869800117622177 ], [ 110.918501183475058, 33.988239050273428 ], [ 110.381274024027249, 34.104336505868297 ], [ 109.842592320924979, 34.218075977031972 ], [ 109.30247606389932, 34.329441167324994 ], [ 108.760946, 34.438416 ] ] ] } },
{ "type": "Feature", "properties": { "Date": "2024-09-04T00:00:00", "Flight Number": "CA8326", "Departure": "XIY", "Arrival": "PVG", "Aircraft": "Airbus A321", "Aircraft Registration": "B8595", "Class": "Economy", "Departure Latitude": 34.438416, "Departure Longitude": 108.760946, "Arrival Latitude": 31.143333, "Arrival Longitude": 121.805278, "Route": "XIY<->PVG", "Distance": "1274 km", "No. flight": 1 }, "geometry": { "type": "MultiLineString", "coordinates": [ [ [ 108.760946, 34.438416 ], [ 109.300572239657967, 34.333588098357573 ], [ 109.838842501122954, 34.226386383870185 ], [ 110.375735599192026, 34.116826228324022 ], [ 110.911231075621529, 34.004923228263003 ], [ 111.445309201334936, 33.890693196579555 ], [ 111.977950977917857, 33.774152154121211 ], [ 112.509138138415537, 33.655316321322061 ], [ 113.038853147449828, 33.534202109868069 ], [ 113.567079200672524, 33.410826114404834 ], [ 114.093800223573709, 33.285205104296118 ], [ 114.619000869663466, 33.15735601544111 ], [ 115.142666518046994, 33.027295942158183 ], [ 115.664783270412656, 32.895042129142361 ], [ 116.18533794745386, 32.760611963503791 ], [ 116.704318084745509, 32.624022966893563 ], [ 117.221711928096454, 32.485292787723552 ], [ 117.737508428399494, 32.344439193486139 ], [ 118.251697236000538, 32.201480063179531 ], [ 118.764268694609285, 32.056433379844052 ], [ 119.275213834773012, 31.909317223214455 ], [ 119.784524366935969, 31.760149762492674 ], [ 120.292192674106147, 31.608949249245864 ], [ 120.798211804151592, 31.45573401043314 ], [ 121.302575461748077, 31.300522441565224 ], [ 121.805278, 31.143333 ] ] ] } },
{ "type": "Feature", "properties": { "Date": "2024-09-04T00:00:00", "Flight Number": "TK27", "Departure": "PVG", "Arrival": "IST", "Aircraft": "Boeing 777", "Aircraft Registration": "TCLJG", "Class": "Economy", "Departure Latitude": 31.143333, "Departure Longitude": 121.805278, "Arrival Latitude": 41.260278, "Arrival Longitude": 28.741944, "Route": "PVG<->IST", "Distance": "8039 km", "No. flight": 1 }, "geometry": { "type": "MultiLineString", "coordinates": [ [ [ 121.805278, 31.143333 ], [ 121.388468691299764, 31.42120811200482 ], [ 120.969200440342007, 31.697707660845523 ], [ 120.547444227326579, 31.972808797016416 ], [ 120.123171147394999, 32.246488392409077 ], [ 119.696352428455, 32.51872303855572 ], [ 119.266959449804915, 32.789489045031097 ], [ 118.834963761576205, 33.058762438023024 ], [ 118.400337105011317, 33.326518959082051 ], [ 117.963051433593819, 33.592734064061041 ], [ 117.52307893504674, 33.857382922255859 ], [ 117.08039205421467, 34.120440415758758 ], [ 116.63496351684384, 34.381881139036246 ], [ 116.186766354273772, 34.641679398743854 ], [ 115.735773929052783, 34.899809213790149 ], [ 115.281959961488269, 35.156244315663081 ], [ 114.825298557141537, 35.410958149031892 ], [ 114.365764235275321, 35.663923872637938 ], [ 113.903331958260281, 35.915114360488573 ], [ 113.437977161945255, 36.164502203367981 ], [ 112.969675786993804, 36.412059710679372 ], [ 112.49840431118767, 36.657758912633305 ], [ 112.024139782694988, 36.901571562796867 ], [ 111.546859854299299, 37.143469141018748 ], [ 111.066542818582093, 37.383422856745526 ], [ 110.583167644049155, 37.621403652744306 ], [ 110.09671401218759, 37.857382209247383 ], [ 109.607162355437822, 38.091328948534212 ], [ 109.114493896060338, 38.323214039966338 ], [ 108.618690685874768, 38.553007405490597 ], [ 108.119735646843665, 38.780678725626231 ], [ 107.61761261247031, 39.006197445950967 ], [ 107.112306369975414, 39.229532784101174 ], [ 106.603802703212921, 39.450653737301117 ], [ 106.092088436281102, 39.669529090435582 ], [ 105.577151477779779, 39.886127424680218 ], [ 105.058980865660374, 40.100417126703171 ], [ 104.537566812609555, 40.312366398451346 ], [ 104.012900751902848, 40.521943267533636 ], [ 103.484975383658679, 40.729115598213376 ], [ 102.953784721418216, 40.933851103020729 ], [ 102.419324138970779, 41.136117354995704 ], [ 101.8815904173387, 41.335881800570895 ], [ 101.340581791830232, 41.533111773102227 ], [ 100.796297999063057, 41.727774507055102 ], [ 100.248740323855699, 41.91983715285162 ], [ 99.697911645877554, 42.109266792383686 ], [ 99.143816485943873, 42.296030455195059 ], [ 98.586461051835357, 42.480095135334061 ], [ 98.025853283517378, 42.661427808876908 ], [ 97.46200289762794, 42.839995452120007 ], [ 96.894921431099291, 43.015765060437644 ], [ 96.324622283772229, 43.188703667799615 ], [ 95.751120759858935, 43.358778366941159 ], [ 95.174434108104336, 43.525956330175894 ], [ 94.59458156049422, 43.690204830839555 ], [ 94.011584369353017, 43.851491265350774 ], [ 93.425465842672807, 44.009783175872215 ], [ 92.836251377511743, 44.165048273553296 ], [ 92.243968491298943, 44.317254462333025 ], [ 91.648646850881477, 44.466369863279212 ], [ 91.050318299148614, 44.612362839437267 ], [ 90.449016879069063, 44.75520202115964 ], [ 89.844778854977179, 44.894856331884164 ], [ 89.237642730947016, 45.03129501432668 ], [ 88.627649266094821, 45.164487657051019 ], [ 88.014841486654603, 45.294404221376631 ], [ 87.39926469467558, 45.421015068581454 ], [ 86.780966473196031, 45.544290987355303 ], [ 86.159996687753903, 45.664203221456297 ], [ 85.536407484102199, 45.780723497520711 ], [ 84.910253282005215, 45.893824052974168 ], [ 84.281590765000999, 46.003477663989862 ], [ 83.650478866025537, 46.109657673437567 ], [ 83.016978748805087, 46.212338018765294 ], [ 82.381153784935805, 46.311493259753519 ], [ 81.743069526581479, 46.407098606080453 ], [ 81.102793674735551, 46.499129944635712 ], [ 80.460396043006654, 46.587563866518053 ], [ 79.815948516903347, 46.672377693652457 ], [ 79.169525008608858, 46.753549504960951 ], [ 78.521201407253869, 46.831058162021058 ], [ 77.871055524712162, 46.904883334145758 ], [ 77.219167036961238, 46.975005522819053 ], [ 76.565617421068453, 47.041406085421464 ], [ 75.910489887880303, 47.104067258180471 ], [ 75.2538693105123, 47.162972178282402 ], [ 74.595842148752297, 47.218104905082825 ], [ 73.936496369511701, 47.26945044035493 ], [ 73.275921363473145, 47.316994747516667 ], [ 72.614207858103583, 47.360724769780028 ], [ 71.951447827216754, 47.400628447168224 ], [ 71.287734397286044, 47.436694732349352 ], [ 70.623161750724222, 47.468913605238214 ], [ 69.95782502636132, 47.497276086321222 ], [ 69.291820217365142, 47.521774248663043 ], [ 68.62524406686272, 47.542401228557303 ], [ 67.958193961530426, 47.559151234787883 ], [ 67.290767823433583, 47.572019556471176 ], [ 66.623064000402351, 47.581002569454654 ], [ 65.955181155240041, 47.586097741250896 ], [ 65.287218154065641, 47.587303634491455 ], [ 64.619273954095803, 47.584619908889408 ], [ 63.951447491175912, 47.578047321704204 ], [ 63.283837567370135, 47.567587726707302 ], [ 62.616542738919982, 47.553244071652003 ], [ 61.949661204879945, 47.535020394255696 ], [ 61.283290696734319, 47.512921816707113 ], [ 60.61752836929476, 47.486954538716716 ], [ 59.952470693171307, 47.457125829131989 ], [ 59.288213349102335, 47.423444016144614 ], [ 58.624851124418022, 47.385918476120338 ], [ 57.962477811903163, 47.344559621086866 ], [ 57.30118611131131, 47.299378884918653 ], [ 56.641067533770567, 47.25038870826161 ], [ 55.982212309306547, 47.197602522243876 ], [ 55.324709297692905, 47.141034731022273 ], [ 54.668645902824764, 47.08070069321699 ], [ 54.014107990792567, 47.016616702289554 ], [ 53.361179811818218, 46.948799965921964 ], [ 52.709943926196487, 46.877268584456409 ], [ 52.06048113436789, 46.802041528457423 ], [ 51.412870411230188, 46.723138615459291 ], [ 50.767188844778403, 46.640580485963156 ], [ 50.123511579144449, 46.554388578748807 ], [ 49.481911762089766, 46.464585105567132 ], [ 48.842460496986646, 46.371193025279233 ], [ 48.205226799306587, 46.274236017508279 ], [ 47.570277557617075, 46.173738455870065 ], [ 46.937677499071555, 46.0697253808477 ], [ 46.30748915936249, 45.962222472374769 ], [ 45.679772857091123, 45.851256022191009 ], [ 45.054586672494494, 45.736852906032439 ], [ 44.431986430456035, 45.619040555717213 ], [ 43.812025687713515, 45.49784693118626 ], [ 43.194755724167265, 45.37330049255651 ], [ 42.580225538179263, 45.245430172241839 ], [ 41.968481845745799, 45.114265347195555 ], [ 41.359569083415678, 44.979835811325394 ], [ 40.753529414819994, 44.842171748129829 ], [ 40.150402740670188, 44.701303703602257 ], [ 39.550226712078, 44.557262559446826 ], [ 38.953036747043413, 44.410079506647278 ], [ 38.358866049954088, 44.25978601942748 ], [ 37.767745633936116, 44.106413829639827 ], [ 37.179704345893398, 43.949994901614708 ], [ 36.594768894071692, 43.790561407502068 ], [ 36.012963877983267, 43.628145703133072 ], [ 35.434311820526148, 43.462780304427334 ], [ 34.8588332021355, 43.294497864368815 ], [ 34.286546496803425, 43.123331150570721 ], [ 33.717468209807194, 42.949313023447296 ], [ 33.151612916987744, 42.772476415008306 ], [ 32.588993305423443, 42.592854308289063 ], [ 32.029620215347606, 42.410479717427378 ], [ 31.473502683162494, 42.22538566839588 ], [ 30.920647985406347, 42.037605180396582 ], [ 30.371061683534791, 41.847171247922503 ], [ 29.824747669383399, 41.654116823488977 ], [ 29.281708211182348, 41.458474801035884 ], [ 28.741944, 41.260278 ] ] ] } },
{ "type": "Feature", "properties": { "Date": "2024-09-05T00:00:00", "Flight Number": "TK1921", "Departure": "IST", "Arrival": "GVA", "Aircraft": "Airbus A321", "Aircraft Registration": "TCLSZ", "Class": "Economy", "Departure Latitude": 41.260278, "Departure Longitude": 28.741944, "Arrival Latitude": 46.229634, "Arrival Longitude": 6.105774, "Route": "IST<->GVA", "Distance": "1897 km", "No. flight": 3 }, "geometry": { "type": "MultiLineString", "coordinates": [ [ [ 28.741944, 41.260278 ], [ 28.18353970134935, 41.450578657360673 ], [ 27.621885758222088, 41.63814681200153 ], [ 27.056989514636051, 41.822948813195595 ], [ 26.488860082666612, 42.004951008002486 ], [ 25.917508386194754, 42.184119760292809 ], [ 25.34294720367879, 42.360421470445019 ], [ 24.765191209805565, 42.533822595707271 ], [ 24.184257015873396, 42.704289671215221 ], [ 23.600163208754534, 42.871789331654078 ], [ 23.012930388281923, 43.036288333551099 ], [ 22.422581202901778, 43.197753578182272 ], [ 21.829140383431316, 43.356152135074581 ], [ 21.232634774758761, 43.511451266082602 ], [ 20.63309336532177, 43.663618450015541 ], [ 20.030547314199666, 43.812621407788583 ], [ 19.425029975655004, 43.958428128069194 ], [ 18.816576920960738, 44.101006893386852 ], [ 18.205225957351157, 44.240326306671626 ], [ 17.591017143936959, 44.376355318184679 ], [ 16.973992804428363, 44.509063252800509 ], [ 16.354197536514199, 44.638419837598967 ], [ 15.731678217750385, 44.764395229721671 ], [ 15.106484007817022, 44.88696004444521 ], [ 14.478666347010506, 45.006085383421279 ], [ 13.84827895084511, 45.121742863031194 ], [ 13.215377800647499, 45.233904642800127 ], [ 12.580021130037512, 45.342543453814251 ], [ 11.942269407199557, 45.447632627082143 ], [ 11.302185312860718, 45.549146121779586 ], [ 10.659833713904387, 45.647058553315986 ], [ 10.015281632562054, 45.741345221158326 ], [ 9.36859821113968, 45.831982136348131 ], [ 8.719854672251135, 45.91894604864553 ], [ 8.06912427454596, 46.002214473233785 ], [ 7.416482263936086, 46.081765716917381 ], [ 6.762005820342406, 46.157578903746405 ], [ 6.105774, 46.229634 ] ] ] } },
{ "type": "Feature", "properties": { "Date": "2024-10-22T00:00:00", "Flight Number": "U21565", "Departure": "GVA", "Arrival": "BUD", "Aircraft": "Airbus A320", "Aircraft Registration": "HBJYA", "Class": "Economy", "Departure Latitude": 46.229634, "Departure Longitude": 6.105774, "Arrival Latitude": 47.433037, "Arrival Longitude": 19.261621, "Route": "GVA<->BUD", "Distance": "1011 km", "No. flight": 1 }, "geometry": { "type": "MultiLineString", "coordinates": [ [ [ 6.105774, 46.229634 ], [ 6.747200077626907, 46.325264022669032 ], [ 7.390823035988634, 46.417282026724827 ], [ 8.036571976261577, 46.505664394389235 ], [ 8.6843739032962, 46.590388255707317 ], [ 9.334153772420125, 46.671431515193134 ], [ 9.985834540842394, 46.748772877939793 ], [ 10.639337223630505, 46.822391875125419 ], [ 11.294580954213815, 46.892268888847539 ], [ 11.951483049348393, 46.958385176218101 ], [ 12.60995907845987, 47.020722892652962 ], [ 13.269922937262031, 47.079265114290052 ], [ 13.931286925530344, 47.133995859472371 ], [ 14.593961828890988, 47.184900109233467 ], [ 15.25785700446764, 47.231963826725078 ], [ 15.922880470210707, 47.275173975529128 ], [ 16.588938997716035, 47.314518536798722 ], [ 17.255938208323734, 47.349986525176 ], [ 17.923782672271816, 47.381568003437664 ], [ 18.592376010664346, 47.409254095822618 ], [ 19.261621, 47.433037 ] ] ] } },
{ "type": "Feature", "properties": { "Date": "2024-10-27T00:00:00", "Flight Number": "W42849", "Departure": "VIE", "Arrival": "NCE", "Aircraft": "Airbus A321", "Aircraft Registration": "HALGM", "Class": "Economy", "Departure Latitude": 48.11972, "Departure Longitude": 16.563583, "Arrival Latitude": 43.660488, "Arrival Longitude": 7.205232, "Route": "VIE<->NCE", "Distance": "878 km", "No. flight": 1 }, "geometry": { "type": "MultiLineString", "coordinates": [ [ [ 16.563583, 48.11972 ], [ 15.970702815284069, 47.879714076153753 ], [ 15.383308388101966, 47.636664961056788 ], [ 14.801369887195541, 47.390625840872083 ], [ 14.224854940710838, 47.141649345416319 ], [ 13.653728786547822, 46.889787528470968 ], [ 13.087954418952433, 46.635091849995582 ], [ 12.527492731167539, 46.377613160167549 ], [ 11.972302653989825, 46.117401685172212 ], [ 11.422341290108601, 45.854507014666964 ], [ 10.877564044129112, 45.588978090842588 ], [ 10.33792474820795, 45.320863199005906 ], [ 9.803375783251163, 45.050209959608289 ], [ 9.273868195646731, 44.777065321645566 ], [ 8.749351809522611, 44.501475557356365 ], [ 8.229775334538974, 44.223486258146607 ], [ 7.715086469239393, 43.943142331670607 ], [ 7.205232, 43.660488 ] ] ] } },
{ "type": "Feature", "properties": { "Date": "2024-10-27T00:00:00", "Flight Number": "U21328", "Departure": "NCE", "Arrival": "GVA", "Aircraft": "Airbus A320", "Aircraft Registration": "HBJXB", "Class": "Economy", "Departure Latitude": 43.660488, "Departure Longitude": 7.205232, "Arrival Latitude": 46.229634, "Arrival Longitude": 6.105774, "Route": "NCE<->GVA", "Distance": "298 km", "No. flight": 1 }, "geometry": { "type": "MultiLineString", "coordinates": [ [ [ 7.205232, 43.660488 ], [ 6.99305344458368, 44.175241612376475 ], [ 6.777152557599464, 44.689547711739053 ], [ 6.55739800203533, 45.203391920710864 ], [ 6.333652794579993, 45.716759237585158 ], [ 6.105774, 46.229634 ] ] ] } },
{ "type": "Feature", "properties": { "Date": "2025-04-17T00:00:00", "Flight Number": "U21430", "Departure": "ZRH", "Arrival": "NAP", "Aircraft": "Airbus A320", "Aircraft Registration": "OEIVV", "Class": "Economy", "Departure Latitude": 47.450604, "Departure Longitude": 8.561746, "Arrival Latitude": 40.886111, "Arrival Longitude": 14.291667, "Route": "ZRH<->NAP", "Distance": "860 km", "No. flight": 1 }, "geometry": { "type": "MultiLineString", "coordinates": [ [ [ 8.561746, 47.450604 ], [ 8.936267083151144, 47.073154335714399 ], [ 9.305528064001759, 46.694472122942514 ], [ 9.669654467501289, 46.314589618167361 ], [ 10.028768740470937, 45.933538087569531 ], [ 10.382990316676661, 45.551347841663599 ], [ 10.732435682464088, 45.168048268762064 ], [ 11.077218442711594, 44.783667867295854 ], [ 11.417449386884432, 44.398234277021395 ], [ 11.753236554996841, 44.011774309144414 ], [ 12.084685303311499, 43.624313975391232 ], [ 12.411898369625682, 43.235878516058321 ], [ 12.734975938012123, 42.846492427070721 ], [ 13.054015702898973, 42.456179486080188 ], [ 13.369112932388717, 42.064962777633156 ], [ 13.68036053072959, 41.67286471743865 ], [ 13.987849099865223, 41.279907075765827 ], [ 14.291667, 40.886111 ] ] ] } },
{ "type": "Feature", "properties": { "Date": "2025-04-23T00:00:00", "Flight Number": "U24228", "Departure": "NAP", "Arrival": "GVA", "Aircraft": "Airbus A320", "Aircraft Registration": "HBJXE", "Class": "Economy", "Departure Latitude": 40.886111, "Departure Longitude": 14.291667, "Arrival Latitude": 46.229634, "Arrival Longitude": 6.105774, "Route": "NAP<->GVA", "Distance": "887 km", "No. flight": 2 }, "geometry": { "type": "MultiLineString", "coordinates": [ [ [ 14.291667, 40.886111 ], [ 13.8487962709467, 41.215952860194456 ], [ 13.401465493985762, 41.544055541107184 ], [ 12.94960147857676, 41.870381792292306 ], [ 12.493130576904424, 42.194893585112887 ], [ 12.031978729191302, 42.517552099538094 ], [ 11.566071512994817, 42.838317711174327 ], [ 11.095334196693603, 43.15714997857539 ], [ 10.619691797372861, 43.474007630880102 ], [ 10.139069143322587, 43.788848555829283 ], [ 9.653390941366116, 44.101629788217323 ], [ 9.162581849238958, 44.41230749883767 ], [ 8.666566553240433, 44.720836983984995 ], [ 8.165269851380845, 45.027172655581246 ], [ 7.658616742247548, 45.331268031996181 ], [ 7.146532519811387, 45.633075729638001 ], [ 6.628942874392485, 45.932547455393255 ], [ 6.105774, 46.229634 ] ] ] } }
]
}
