{
"type": "FeatureCollection",
"name": "grandtour_items",
"crs": { "type": "name", "properties": { "name": "urn:ogc:def:crs:OGC:1.3:CRS84" } },
"features": [
{ "type": "Feature", "properties": { "id": "03dfca1732a34e048bf9e982cfb1b047", "title": "The Port of Morges", "titleinframe": "Le Port de Morges", "canton": "Vaud", "dir_COA": "/COA/Vaud_COA.svg", "is_visited": true }, "geometry": { "type": "Point", "coordinates": [ 6.49797523914443, 46.507113664982001 ] } },
{ "type": "Feature", "properties": { "id": "0489f03a650548c8b1d530b726d5520c", "title": "Meilen", "titleinframe": "Meilen am Zürichsee", "canton": "Zürich", "dir_COA": "/COA/Zürich_COA.svg", "is_visited": true }, "geometry": { "type": "Point", "coordinates": [ 8.63918611111, 47.2678027778 ] } },
{ "type": "Feature", "properties": { "id": "053adb7f766546b2aca72fcdd3f5574e", "title": "Rhine Falls", "titleinframe": "Rhinefall", "canton": "Zürich", "dir_COA": "/COA/Zürich_COA.svg", "is_visited": true }, "geometry": { "type": "Point", "coordinates": [ 8.615025010987241, 47.676505227552198 ] } },
{ "type": "Feature", "properties": { "id": "059bb164caea44ab8acab92eeb6c41f5", "title": "Davos Klosters", "titleinframe": "Davos Klosters", "canton": "Graubünden", "dir_COA": "/COA/Graubünden_COA.svg", "is_visited": false }, "geometry": { "type": "Point", "coordinates": [ 9.929000374776709, 46.779570129314997 ] } },
{ "type": "Feature", "properties": { "id": "0d5380288eb4425faeeedcabe1777a75", "title": "Great Aletsch Glacier", "titleinframe": "Grosser Aletschgletscher", "canton": "Valais", "dir_COA": "/COA/Valais_COA.svg", "is_visited": true }, "geometry": { "type": "Point", "coordinates": [ 8.0933507658866, 46.427419324294597 ] } },
{ "type": "Feature", "properties": { "id": "1fe26c24311a48bfb22e6bbe77d064fd", "title": "Maloja", "titleinframe": "Maloja", "canton": "Graubünden", "dir_COA": "/COA/Graubünden_COA.svg", "is_visited": false }, "geometry": { "type": "Point", "coordinates": [ 9.694351, 46.397567 ] } },
{ "type": "Feature", "properties": { "id": "2c1fec19b3d74cdeb242c54871711c1a", "title": "Burgdorf Castle", "titleinframe": "Schloss Burgdorf", "canton": "Bern", "dir_COA": "/COA/Bern_COA.svg", "is_visited": false }, "geometry": { "type": "Point", "coordinates": [ 7.6317668, 47.058604 ] } },
{ "type": "Feature", "properties": { "id": "310bd03a0c1b4295be48feca44679d8a", "title": "Castel San Pietro", "titleinframe": "Castel San Pietro", "canton": "Ticino", "dir_COA": "/COA/Ticino_COA.svg", "is_visited": false }, "geometry": { "type": "Point", "coordinates": [ 9.00889, 45.86 ] } },
{ "type": "Feature", "properties": { "id": "310e8b3aacff4e36a9059d6683fd78ce", "title": "Tremola", "titleinframe": "La Tremola", "canton": "Ticino", "dir_COA": "/COA/Ticino_COA.svg", "is_visited": false }, "geometry": { "type": "Point", "coordinates": [ 8.56442, 46.55078 ] } },
{ "type": "Feature", "properties": { "id": "37ed973cbfd945c08fcc727d88dcaab4", "title": "Region Dents du Midi", "titleinframe": "Région Dents du Midi", "canton": "Valais", "dir_COA": "/COA/Valais_COA.svg", "is_visited": false }, "geometry": { "type": "Point", "coordinates": [ 6.861694, 46.224917 ] } },
{ "type": "Feature", "properties": { "id": "3f16e603cffe4ea89ac6d1597af0fc2b", "title": "Val Surses", "titleinframe": "Val Surses", "canton": "Graubünden", "dir_COA": "/COA/Graubünden_COA.svg", "is_visited": false }, "geometry": { "type": "Point", "coordinates": [ 9.57388, 46.60641 ] } },
{ "type": "Feature", "properties": { "id": "3f217c0c47cb48f09016114759f50a25", "title": "Abbaye de Saint-Maurice", "titleinframe": "Saint-Maurice", "canton": "Valais", "dir_COA": "/COA/Valais_COA.svg", "is_visited": false }, "geometry": { "type": "Point", "coordinates": [ 7.004186, 46.220007 ] } },
{ "type": "Feature", "properties": { "id": "6343af663e674f05be3e23b7a1f4b80f", "title": "Grosser Mythen", "titleinframe": "Grosser Mythen", "canton": "Schwyz", "dir_COA": "/COA/Schwyz_COA.svg", "is_visited": false }, "geometry": { "type": "Point", "coordinates": [ 8.70316085518791, 47.020988519436401 ] } },
{ "type": "Feature", "properties": { "id": "642e5924174b4598aeed9c2a4f1e9606", "title": "St. Gallen", "titleinframe": "St. Gallen", "canton": "St. Gallen", "dir_COA": "/COA/St. Gallen_COA.svg", "is_visited": false }, "geometry": { "type": "Point", "coordinates": [ 9.38714, 47.42203 ] } },
{ "type": "Feature", "properties": { "id": "6479e9157c1a425b8ccabc2f79209117", "title": "Pays-d’Enhaut", "titleinframe": "Pays-d’Enhaut", "canton": "Vaud", "dir_COA": "/COA/Vaud_COA.svg", "is_visited": false }, "geometry": { "type": "Point", "coordinates": [ 7.15578145127981, 46.473672596426297 ] } },
{ "type": "Feature", "properties": { "id": "65ed913bb30c43eeb34128870081b254", "title": "Gemmi 2350 - Leukerbad", "titleinframe": "Gemmi 2350 - Leukerbad", "canton": "Valais", "dir_COA": "/COA/Valais_COA.svg", "is_visited": false }, "geometry": { "type": "Point", "coordinates": [ 7.616048, 46.397854 ] } },
{ "type": "Feature", "properties": { "id": "6ef48e6bd2f64cbf8d8b8cfca3698808", "title": "Aarburg", "titleinframe": "Aarburg", "canton": "Aargau", "dir_COA": "/COA/Aargau_COA.svg", "is_visited": false }, "geometry": { "type": "Point", "coordinates": [ 7.8986783, 47.3194851 ] } },
{ "type": "Feature", "properties": { "id": "74c6ef63346746cea2f59a22359a9c3d", "title": "Engadine St. Moritz", "titleinframe": "Engadine St. Moritz", "canton": "Graubünden", "dir_COA": "/COA/Graubünden_COA.svg", "is_visited": false }, "geometry": { "type": "Point", "coordinates": [ 9.84849287789628, 46.4970126551842 ] } },
{ "type": "Feature", "properties": { "id": "781b9934cd8e4704b1022bcc70a84d18", "title": "Pizol Summit", "titleinframe": "Pizolgipfel", "canton": "St. Gallen", "dir_COA": "/COA/St. Gallen_COA.svg", "is_visited": false }, "geometry": { "type": "Point", "coordinates": [ 9.428453, 46.977708 ] } },
{ "type": "Feature", "properties": { "id": "7b0b1c3581e74a6ebea20fbeafd9a0bc", "title": "Stein am Rhein", "titleinframe": "Stein am Rhein", "canton": "Schaffhausen", "dir_COA": "/COA/Schaffhausen_COA.svg", "is_visited": true }, "geometry": { "type": "Point", "coordinates": [ 8.85733, 47.657173 ] } },
{ "type": "Feature", "properties": { "id": "7d376d03b5254bf98a8d74d77fc10f31", "title": "Valais Barn in Goms", "titleinframe": "Walliser Stadel im Goms", "canton": "Valais", "dir_COA": "/COA/Valais_COA.svg", "is_visited": false }, "geometry": { "type": "Point", "coordinates": [ 8.244222, 46.469444 ] } },
{ "type": "Feature", "properties": { "id": "82e8286205ad4fb3a722e28922222667", "title": "Les Grottes de Vallorbe", "titleinframe": "Les Grottes de Vallorbe", "canton": "Vaud", "dir_COA": "/COA/Vaud_COA.svg", "is_visited": false }, "geometry": { "type": "Point", "coordinates": [ 6.34662894039935, 46.698448390297102 ] } },
{ "type": "Feature", "properties": { "id": "88d1ed0c2bc648f6b78e63cf8ebc88d1", "title": "Ascona", "titleinframe": "Ascona", "canton": "Ticino", "dir_COA": "/COA/Ticino_COA.svg", "is_visited": true }, "geometry": { "type": "Point", "coordinates": [ 8.766, 46.1545 ] } },
{ "type": "Feature", "properties": { "id": "89c6c4733a1c408eb6d58a62bee2e491", "title": "Badhütte Rorschach", "titleinframe": "Badhütte Rorschach", "canton": "St. Gallen", "dir_COA": "/COA/St. Gallen_COA.svg", "is_visited": false }, "geometry": { "type": "Point", "coordinates": [ 9.485348, 47.479996 ] } },
{ "type": "Feature", "properties": { "id": "94ed931a90f84eafa6f91958b1437a67", "title": "Stockalper Palace", "titleinframe": "Stockalperschloss", "canton": "Valais", "dir_COA": "/COA/Valais_COA.svg", "is_visited": false }, "geometry": { "type": "Point", "coordinates": [ 7.99094, 46.31433 ] } },
{ "type": "Feature", "properties": { "id": "9f438c5e776e4ef380e4dbbe557e7e40", "title": "Parco San Michele", "titleinframe": "Lugano Region", "canton": "Ticino", "dir_COA": "/COA/Ticino_COA.svg", "is_visited": false }, "geometry": { "type": "Point", "coordinates": [ 8.97277, 46.00443 ] } },
{ "type": "Feature", "properties": { "id": "a8961d340bf84f4589b56a5f74cbe579", "title": "Heidi House", "titleinframe": "Heidihaus", "canton": "Graubünden", "dir_COA": "/COA/Graubünden_COA.svg", "is_visited": false }, "geometry": { "type": "Point", "coordinates": [ 9.54508180369022, 47.013422308603097 ] } },
{ "type": "Feature", "properties": { "id": "b691bd3cd0f24a599ebda59a8d8de64d", "title": "Stockhorn - Simmental", "titleinframe": "Stockhorn", "canton": "Bern", "dir_COA": "/COA/Bern_COA.svg", "is_visited": false }, "geometry": { "type": "Point", "coordinates": [ 7.5375, 46.693611 ] } },
{ "type": "Feature", "properties": { "id": "ce20c923bb2d4c38a12a1a2083a3193a", "title": "Cardada", "titleinframe": "Tunivia Cardada", "canton": "Ticino", "dir_COA": "/COA/Ticino_COA.svg", "is_visited": false }, "geometry": { "type": "Point", "coordinates": [ 8.7822, 46.1907 ] } },
{ "type": "Feature", "properties": { "id": "d0802a7d70194ed7a173e09ea9d41c01", "title": "Niesen", "titleinframe": "Niesen", "canton": "Bern", "dir_COA": "/COA/Bern_COA.svg", "is_visited": false }, "geometry": { "type": "Point", "coordinates": [ 7.65236, 46.646 ] } },
{ "type": "Feature", "properties": { "id": "d220a804a14d4a79a7e26373ab9e09c2", "title": "Erlach", "titleinframe": "Erlach", "canton": "Bern", "dir_COA": "/COA/Bern_COA.svg", "is_visited": false }, "geometry": { "type": "Point", "coordinates": [ 7.09086, 47.04247 ] } },
{ "type": "Feature", "properties": { "id": "e85f260bb9094bafa330635b55023b01", "title": "Piz Bernina", "titleinframe": "Piz Bernina", "canton": "Graubünden", "dir_COA": "/COA/Graubünden_COA.svg", "is_visited": false }, "geometry": { "type": "Point", "coordinates": [ 9.885624, 46.540446 ] } },
{ "type": "Feature", "properties": { "id": "e896f538371843dc9ca9bf87b150cb8a", "title": "Gruyères", "titleinframe": "Gruyères", "canton": "Fribourg", "dir_COA": "/COA/Fribourg_COA.svg", "is_visited": true }, "geometry": { "type": "Point", "coordinates": [ 7.08306, 46.58439 ] } },
{ "type": "Feature", "properties": { "id": "f246203efbfb4185a9ac7b70f47765f4", "title": "Morcote", "titleinframe": "Morcote", "canton": "Ticino", "dir_COA": "/COA/Ticino_COA.svg", "is_visited": false }, "geometry": { "type": "Point", "coordinates": [ 8.916390171164339, 45.922607541819701 ] } },
{ "type": "Feature", "properties": { "id": "f6a6747825ce4c399409ac6819824d71", "title": "Stäfa", "titleinframe": "Stäfa", "canton": "Zürich", "dir_COA": "/COA/Zürich_COA.svg", "is_visited": true }, "geometry": { "type": "Point", "coordinates": [ 8.7184306, 47.2387247 ] } },
{ "type": "Feature", "properties": { "id": "f703532e6d774b4198eea6ca2d88361a", "title": "Alpstein", "titleinframe": "Alpstein", "canton": "St. Gallen", "dir_COA": "/COA/St. Gallen_COA.svg", "is_visited": false }, "geometry": { "type": "Point", "coordinates": [ 9.48521783126294, 47.283660809516803 ] } },
{ "type": "Feature", "properties": { "id": "030bf58a23034cb09b0302cbeae5816d", "title": "Creux du Van", "titleinframe": "Creux du Van", "canton": "Neuchâtel", "dir_COA": "/COA/Neuchâtel_COA.svg", "is_visited": false }, "geometry": { "type": "Point", "coordinates": [ 6.74953, 46.95594 ] } },
{ "type": "Feature", "properties": { "id": "0b1da4f3bb554956ae320b14059bdcc8", "title": "Fribourg", "titleinframe": "Fribourg / Freiburg", "canton": "Fribourg", "dir_COA": "/COA/Fribourg_COA.svg", "is_visited": false }, "geometry": { "type": "Point", "coordinates": [ 7.17126132799492, 46.804019004294403 ] } },
{ "type": "Feature", "properties": { "id": "13d623fc89e144deb317c6016f2b726d", "title": "Sion", "titleinframe": "Sion", "canton": "Valais", "dir_COA": "/COA/Valais_COA.svg", "is_visited": false }, "geometry": { "type": "Point", "coordinates": [ 7.3426337, 46.2314736 ] } },
{ "type": "Feature", "properties": { "id": "19eb4d4084c848bc97c8e5f05a938f5b", "title": "Bettmeralp - Aletsch Arena", "titleinframe": "Bettmeralp - Aletsch Arena", "canton": "Valais", "dir_COA": "/COA/Valais_COA.svg", "is_visited": true }, "geometry": { "type": "Point", "coordinates": [ 8.060822, 46.389312 ] } },
{ "type": "Feature", "properties": { "id": "1cf3274b35c34b01892675cd1c91ed97", "title": "Lavaux", "titleinframe": "Lavaux", "canton": "Vaud", "dir_COA": "/COA/Vaud_COA.svg", "is_visited": true }, "geometry": { "type": "Point", "coordinates": [ 6.78831010436924, 46.478262533462598 ] } },
{ "type": "Feature", "properties": { "id": "1e13bb9b41ba4688813b1321f34e7441", "title": "La Punt", "titleinframe": "La Punt", "canton": "Graubünden", "dir_COA": "/COA/Graubünden_COA.svg", "is_visited": false }, "geometry": { "type": "Point", "coordinates": [ 9.925639, 46.579056 ] } },
{ "type": "Feature", "properties": { "id": "21db9c9bd0ff4a599828e367000a311f", "title": "Säntis", "titleinframe": "Säntis", "canton": "Appenzell Ausserrhoden", "dir_COA": "/COA/Appenzell Ausserrhoden_COA.svg", "is_visited": false }, "geometry": { "type": "Point", "coordinates": [ 9.31957, 47.25627 ] } },
{ "type": "Feature", "properties": { "id": "21fd86b67fdb4b279e12dc4d54d16b00", "title": "Gstaad Saanenland", "titleinframe": "Gstaad Saanenland", "canton": "Bern", "dir_COA": "/COA/Bern_COA.svg", "is_visited": false }, "geometry": { "type": "Point", "coordinates": [ 7.26758, 46.4925 ] } },
{ "type": "Feature", "properties": { "id": "28d93d4a946546bfac952a25e39ca74e", "title": "Monte San Giorgio", "titleinframe": "Monte San Giorgio", "canton": "Ticino", "dir_COA": "/COA/Ticino_COA.svg", "is_visited": false }, "geometry": { "type": "Point", "coordinates": [ 8.96580029503408, 45.948945834514099 ] } },
{ "type": "Feature", "properties": { "id": "37db038cd3a54fce9684f84f2bf38b5d", "title": "Ballenberg", "titleinframe": "Museum Ballenberg", "canton": "Bern", "dir_COA": "/COA/Bern_COA.svg", "is_visited": false }, "geometry": { "type": "Point", "coordinates": [ 8.07569, 46.74817 ] } },
{ "type": "Feature", "properties": { "id": "3f3f65b2892c4820afb7662b585eda9d", "title": "Einsiedeln Abbey", "titleinframe": "Kloster Einsiedeln", "canton": "Schwyz", "dir_COA": "/COA/Schwyz_COA.svg", "is_visited": false }, "geometry": { "type": "Point", "coordinates": [ 8.750460597221981, 47.126774046663499 ] } },
{ "type": "Feature", "properties": { "id": "411ab3a98c5c443091847b259c69e6d5", "title": "Rapperswil-Jona", "titleinframe": "Rapperswil-Jona", "canton": "St. Gallen", "dir_COA": "/COA/St. Gallen_COA.svg", "is_visited": true }, "geometry": { "type": "Point", "coordinates": [ 8.81441, 47.22463 ] } },
{ "type": "Feature", "properties": { "id": "5578cf9ed1cc4c8799fc53356ca90323", "title": "Hallwyl Castle", "titleinframe": "Schloss Hallwyl", "canton": "Aargau", "dir_COA": "/COA/Aargau_COA.svg", "is_visited": false }, "geometry": { "type": "Point", "coordinates": [ 8.19428, 47.32311 ] } },
{ "type": "Feature", "properties": { "id": "56fd2186cdf7435489b90d5897fe5326", "title": "Fully", "titleinframe": "Fully - Combe d'Enfer", "canton": "Valais", "dir_COA": "/COA/Valais_COA.svg", "is_visited": false }, "geometry": { "type": "Point", "coordinates": [ 7.10392, 46.13772 ] } },
{ "type": "Feature", "properties": { "id": "584fe4fe251943ccae0e37b645a96dba", "title": "Lucerne", "titleinframe": "Luzern", "canton": "Luzern", "dir_COA": "/COA/Luzern_COA.svg", "is_visited": true }, "geometry": { "type": "Point", "coordinates": [ 8.295313654570229, 47.051552445007403 ] } },
{ "type": "Feature", "properties": { "id": "5f3802f34b8b4da6bfec76c0eef2f07e", "title": "Viamala Gorge", "titleinframe": "Viamala-Schlucht", "canton": "Graubünden", "dir_COA": "/COA/Graubünden_COA.svg", "is_visited": false }, "geometry": { "type": "Point", "coordinates": [ 9.447401317889151, 46.663287021381798 ] } },
{ "type": "Feature", "properties": { "id": "60ea54929c3f45ff9d592883cfeaca08", "title": "Spiez", "titleinframe": "Spiez", "canton": "Bern", "dir_COA": "/COA/Bern_COA.svg", "is_visited": true }, "geometry": { "type": "Point", "coordinates": [ 7.679606, 46.687278 ] } },
{ "type": "Feature", "properties": { "id": "708096b6a3e649e88f809142916d6710", "title": "Lindt Home of Chocolate", "titleinframe": "Lindt Home of Chocolate", "canton": "Zürich", "dir_COA": "/COA/Zürich_COA.svg", "is_visited": false }, "geometry": { "type": "Point", "coordinates": [ 8.55187358913679, 47.318176433592697 ] } },
{ "type": "Feature", "properties": { "id": "86d0a7f0935744e3b24f216561af35cb", "title": "Hünegg Castle", "titleinframe": "Schloss Hünegg", "canton": "Bern", "dir_COA": "/COA/Bern_COA.svg", "is_visited": false }, "geometry": { "type": "Point", "coordinates": [ 7.6555363013275, 46.737174381649702 ] } },
{ "type": "Feature", "properties": { "id": "8ca3a384611a4b5bb546dae578675cf6", "title": "Lake Constance – Untersee Region", "titleinframe": "Bodensee", "canton": "Thurgau", "dir_COA": "/COA/Thurgau_COA.svg", "is_visited": true }, "geometry": { "type": "Point", "coordinates": [ 9.05940973060776, 47.672146045481398 ] } },
{ "type": "Feature", "properties": { "id": "8e59a288d2eb4638a14fb15d9c03a97c", "title": "St. Beatus Caves", "titleinframe": "St. Beatus-Höhlen", "canton": "Bern", "dir_COA": "/COA/Bern_COA.svg", "is_visited": false }, "geometry": { "type": "Point", "coordinates": [ 7.78186, 46.68433 ] } },
{ "type": "Feature", "properties": { "id": "907715938bcd45ffafad5f797c735d7a", "title": "Rigi", "titleinframe": "Station Rigi Bahnen AG", "canton": "Luzern", "dir_COA": "/COA/Luzern_COA.svg", "is_visited": true }, "geometry": { "type": "Point", "coordinates": [ 8.48310090792962, 47.009725371200702 ] } },
{ "type": "Feature", "properties": { "id": "965762fed8f54cfe8197b1cb5592f394", "title": "Saint-Ursanne", "titleinframe": "Saint-Ursanne", "canton": "Jura", "dir_COA": "/COA/Jura_COA.svg", "is_visited": false }, "geometry": { "type": "Point", "coordinates": [ 7.15464, 47.36358 ] } },
{ "type": "Feature", "properties": { "id": "96a9869e584f483b8fa7673c3d969c05", "title": "Appenzell Show Dairy", "titleinframe": "Appenzeller Schaukäserei", "canton": "Appenzell Ausserrhoden", "dir_COA": "/COA/Appenzell Ausserrhoden_COA.svg", "is_visited": false }, "geometry": { "type": "Point", "coordinates": [ 9.344378, 47.373289 ] } },
{ "type": "Feature", "properties": { "id": "981afb89c78042949c8e3130955ad6de", "title": "Basel", "titleinframe": "Basel", "canton": "Basel-Stadt", "dir_COA": "/COA/Basel-Stadt_COA.svg", "is_visited": true }, "geometry": { "type": "Point", "coordinates": [ 7.58975, 47.58847 ] } },
{ "type": "Feature", "properties": { "id": "9c821bff0135447b954481deb43c45bd", "title": "CabriO Stanserhorn", "titleinframe": "CabriO Stanserhorn", "canton": "Nidwalden", "dir_COA": "/COA/Nidwalden_COA.svg", "is_visited": true }, "geometry": { "type": "Point", "coordinates": [ 8.34325, 46.93055 ] } },
{ "type": "Feature", "properties": { "id": "a7f80df0d20f46af80cf459f1678a681", "title": "the seven Churfirsten", "titleinframe": "Die Sieben Churfirsten", "canton": "St. Gallen", "dir_COA": "/COA/St. Gallen_COA.svg", "is_visited": false }, "geometry": { "type": "Point", "coordinates": [ 9.34998292771224, 47.203242693356103 ] } },
{ "type": "Feature", "properties": { "id": "b1241a41d1ee4235ab86098095c42429", "title": "Thun", "titleinframe": "Thun", "canton": "Bern", "dir_COA": "/COA/Bern_COA.svg", "is_visited": false }, "geometry": { "type": "Point", "coordinates": [ 7.629356, 46.757914 ] } },
{ "type": "Feature", "properties": { "id": "b29a89aaf7614bdd8dc9109c33720d1d", "title": "Lake Lucerne", "titleinframe": "Vierwaldstättersee", "canton": "Schwyz", "dir_COA": "/COA/Schwyz_COA.svg", "is_visited": true }, "geometry": { "type": "Point", "coordinates": [ 8.60652, 46.99333 ] } },
{ "type": "Feature", "properties": { "id": "bde80944ac79498ea2f299f94c8e640f", "title": "Swissminiatur", "titleinframe": "Swissminiatur", "canton": "Ticino", "dir_COA": "/COA/Ticino_COA.svg", "is_visited": false }, "geometry": { "type": "Point", "coordinates": [ 8.95032, 45.95331 ] } },
{ "type": "Feature", "properties": { "id": "bebe3a8672d64d2387285a95eaaa794b", "title": "Emmental", "titleinframe": "Emmental", "canton": "Bern", "dir_COA": "/COA/Bern_COA.svg", "is_visited": false }, "geometry": { "type": "Point", "coordinates": [ 7.73435125270017, 47.057481385814697 ] } },
{ "type": "Feature", "properties": { "id": "c1fa38410bb74bc6beedb8af5bce3fb0", "title": "Gornergrat-Matterhorn", "titleinframe": "Gornergrat-Matterhorn", "canton": "Valais", "dir_COA": "/COA/Valais_COA.svg", "is_visited": false }, "geometry": { "type": "Point", "coordinates": [ 7.783092, 45.983342 ] } },
{ "type": "Feature", "properties": { "id": "d11553b4b564486fa20d80f5b9669623", "title": "Furka", "titleinframe": "Furkapass", "canton": "Valais", "dir_COA": "/COA/Valais_COA.svg", "is_visited": false }, "geometry": { "type": "Point", "coordinates": [ 8.40934937824883, 46.5717388342579 ] } },
{ "type": "Feature", "properties": { "id": "d83fa98cad7f4703acd568ae68756c94", "title": "Lake Geneva", "titleinframe": "Lac Léman", "canton": "Vaud", "dir_COA": "/COA/Vaud_COA.svg", "is_visited": true }, "geometry": { "type": "Point", "coordinates": [ 6.1925, 46.31478 ] } },
{ "type": "Feature", "properties": { "id": "e04f924aca294e9db5fa0d5abb90249b", "title": "Wyher Moated Castle", "titleinframe": "Wasserschloss Wyher", "canton": "Luzern", "dir_COA": "/COA/Luzern_COA.svg", "is_visited": false }, "geometry": { "type": "Point", "coordinates": [ 8.0237083, 47.1420389 ] } },
{ "type": "Feature", "properties": { "id": "e73e13f4076b41b4a87114c0a7ce6060", "title": "Lake Constance – Obersee Region", "titleinframe": "Bodensee", "canton": "Thurgau", "dir_COA": "/COA/Thurgau_COA.svg", "is_visited": true }, "geometry": { "type": "Point", "coordinates": [ 9.26775, 47.62386 ] } },
{ "type": "Feature", "properties": { "id": "077c78c45ab545bd8058dedac150bc90", "title": "Chantarella - St. Moritz", "titleinframe": "Chantarella - St. Moritz", "canton": "Graubünden", "dir_COA": "/COA/Graubünden_COA.svg", "is_visited": false }, "geometry": { "type": "Point", "coordinates": [ 9.83491, 46.50142 ] } },
{ "type": "Feature", "properties": { "id": "0b3128e8bfd740c6b3ac97f90d823c9d", "title": "Bernina Glaciers", "titleinframe": "Bernina Glaciers", "canton": "Graubünden", "dir_COA": "/COA/Graubünden_COA.svg", "is_visited": false }, "geometry": { "type": "Point", "coordinates": [ 9.93853, 46.45794 ] } },
{ "type": "Feature", "properties": { "id": "12e9dced25a74fb7b893c56cfe50f51f", "title": "Niederhorn", "titleinframe": "Niederhorn-Berner Alpen", "canton": "Bern", "dir_COA": "/COA/Bern_COA.svg", "is_visited": false }, "geometry": { "type": "Point", "coordinates": [ 7.776, 46.711306 ] } },
{ "type": "Feature", "properties": { "id": "12ff20e92eda4fd4ae6527b5fbdb3fbd", "title": "Monte Ceneri", "titleinframe": "Piazza Ticino", "canton": "Ticino", "dir_COA": "/COA/Ticino_COA.svg", "is_visited": false }, "geometry": { "type": "Point", "coordinates": [ 8.905617, 46.139489 ] } },
{ "type": "Feature", "properties": { "id": "17790fd51d2148cab11b50fc294d8d33", "title": "Obermutten", "titleinframe": "Obermutten", "canton": "Graubünden", "dir_COA": "/COA/Graubünden_COA.svg", "is_visited": false }, "geometry": { "type": "Point", "coordinates": [ 9.483825019999619, 46.671622706752402 ] } },
{ "type": "Feature", "properties": { "id": "7741a7e8f19141a0bc25da1eb3b3e2fb", "title": "Geneva", "titleinframe": "Genève", "canton": "Genève", "dir_COA": "/COA/Genève_COA.svg", "is_visited": true }, "geometry": { "type": "Point", "coordinates": [ 6.151111, 46.208917 ] } },
{ "type": "Feature", "properties": { "id": "820b38c82fe543b68040f37bcf7e3b7b", "title": "Romanshorn", "titleinframe": "Romanshorn", "canton": "Thurgau", "dir_COA": "/COA/Thurgau_COA.svg", "is_visited": false }, "geometry": { "type": "Point", "coordinates": [ 9.380852, 47.56466 ] } },
{ "type": "Feature", "properties": { "id": "8bdcb4c1528949d88a9f93ac172fa219", "title": "San Bernardino", "titleinframe": "San Bernardino", "canton": "Graubünden", "dir_COA": "/COA/Graubünden_COA.svg", "is_visited": false }, "geometry": { "type": "Point", "coordinates": [ 9.169325477157001, 46.486229637275997 ] } },
{ "type": "Feature", "properties": { "id": "944d54d1a0f34db78341849432672531", "title": "Bellinzona", "titleinframe": "La Fortezza di Bellinzona", "canton": "Ticino", "dir_COA": "/COA/Ticino_COA.svg", "is_visited": true }, "geometry": { "type": "Point", "coordinates": [ 9.02652537045816, 46.191310223865003 ] } },
{ "type": "Feature", "properties": { "id": "96c95ddafb574e30b9995cdf6b2bc816", "title": "Monte Generoso", "titleinframe": "Monte Generoso", "canton": "Ticino", "dir_COA": "/COA/Ticino_COA.svg", "is_visited": false }, "geometry": { "type": "Point", "coordinates": [ 9.01920559183948, 45.929738019324098 ] } },
{ "type": "Feature", "properties": { "id": "a8607dd1f6944322bec3058b32329b27", "title": "Lake Lucerne Car Ferry", "titleinframe": "Autofähre Tellsprung", "canton": "Nidwalden", "dir_COA": "/COA/Nidwalden_COA.svg", "is_visited": false }, "geometry": { "type": "Point", "coordinates": [ 8.459616057905819, 46.971902088812101 ] } },
{ "type": "Feature", "properties": { "id": "ab4cf7dd49fc43eda92601f26b2b2525", "title": "Rolle", "titleinframe": "Rolle", "canton": "Vaud", "dir_COA": "/COA/Vaud_COA.svg", "is_visited": false }, "geometry": { "type": "Point", "coordinates": [ 6.337803, 46.455628 ] } },
{ "type": "Feature", "properties": { "id": "c6144fefb1f8426ea5a557e1cb2fa218", "title": "Mendrisio", "titleinframe": "Mendrisio", "canton": "Ticino", "dir_COA": "/COA/Ticino_COA.svg", "is_visited": false }, "geometry": { "type": "Point", "coordinates": [ 8.989378150440579, 45.8688199883564 ] } },
{ "type": "Feature", "properties": { "id": "e2285fd4e11c4a96a980988024aa3f70", "title": "Matterhorn", "titleinframe": "Matterhorn", "canton": "Valais", "dir_COA": "/COA/Valais_COA.svg", "is_visited": true }, "geometry": { "type": "Point", "coordinates": [ 7.79745, 46.021097 ] } },
{ "type": "Feature", "properties": { "id": "e3bae9ed51c34c66856958e71de3df43", "title": "Höhematte Interlaken", "titleinframe": "Höhematte Interlaken", "canton": "Bern", "dir_COA": "/COA/Bern_COA.svg", "is_visited": true }, "geometry": { "type": "Point", "coordinates": [ 7.85910596, 46.68680978 ] } },
{ "type": "Feature", "properties": { "id": "f2fb9ad058214e35ac1b8bce52191d85", "title": "Tower of Hospental", "titleinframe": "Turm von Hospental", "canton": "Uri", "dir_COA": "/COA/Uri_COA.svg", "is_visited": false }, "geometry": { "type": "Point", "coordinates": [ 8.568667, 46.616861 ] } }
]
}
